License,Owner,Street,City,State,Zip,Lat,Lon
200112419,Texas Assn of REALTORS Political Action Committee,"13530 North Highway 183, Austin, TX, USA",Austin,TX,78750,30.141734,-97.832653
200099488,Play for Life Houston,12115 Manchaca Rd,Austin,TX,78748,30.141734,-97.832653
200099488,St. Ignatius Martyr Catholic Church,12115 Manchaca Rd,Austin,TX,78748,30.141734,-97.832653
200179395,Austin New Church DBA The 04 Center,2701 S Lamar Blvd,Austin,TX,78704,30.141734,-97.832653
200159982,"Can-Tini Beverage Company, LLC",710 W Cesar Chavez St,Austin,TX,78701,30.337186,-97.75495
200161724,Leona Doss Elementary PTA,2425 Exposition Blvd,Austin,TX,78703,30.297464,-97.767146
200129075,Young Men's Christian Association of UT ,7900 N FM 620,Austin,TX,78726,30.337186,-97.75495
200129075,Wine and Food Foundation of Texas,7900 N FM 620,Austin,TX,78726,30.337186,-97.75495
200099488,St. Thomas More Catholic Church,12115 Manchaca Rd,Austin,TX,78748,30.141734,-97.832653
200144158,Balanced & Consistency.org,8218 BURNET Rd,AUSTIN,TX,78757,30.26613,-97.751785
200062195,Austin Child Guidance Center,810 W 45th St,Austin,TX,78751,30.26613,-97.751785
200129075,The Trail Conservancy,7900 N FM 620,Austin,TX,78726,30.337186,-97.75495
200099488,Six Square-Austin's Black Cultural District,12115 Manchaca Rd,Austin,TX,78748,30.141734,-97.832653
200099488,St. Elias Antiochian Orthodox Church ,12115 Manchaca Rd,Austin,TX,78748,30.141734,-97.832653
200070517,Austin Junior Forum,1404 West Ave,Austin,TX,78701,30.278955,-97.74771
200144158,Austin Pride Foundation,8218 BURNET Rd,AUSTIN,TX,78757,30.26613,-97.751785
200099488,Our Lady of Guadalupe Catholic Church,12115 Manchaca Rd,Austin,TX,78748,30.141734,-97.832653
200144158,Austin Parks Foundation,8218 BURNET Rd,AUSTIN,TX,78757,30.26613,-97.751785
200099488,St Paul Catholic Church,12115 Manchaca Rd,Austin,TX,78748,30.141734,-97.832653
200159982,CPATH TEXAS,710 W Cesar Chavez St,Austin,TX,78701,30.337186,-97.75495
200152624,Texas Firewalkers,3223 E 7th St,Austin,TX,78702,30.266484,-97.740231
200076841,Austin Celtic Association,10621 Pioneer Farms Dr,Austin,TX,78754,30.369914,-97.659062
200144158,Big Medium,8218 BURNET Rd,AUSTIN,TX,78757,30.26613,-97.751785
200139103,Forage Forward Inc,1836 San Jacinto Blvd,Austin,TX,78701,30.165611,-97.828382
200161724,LEAP Life Essential Advancement Program,2425 Exposition Blvd,Austin,TX,78703,30.297464,-97.767146
200081167,"Asmbly Makerspace, Inc.",9701 Dessau Rd,Austin,TX,78754,30.26613,-97.751785
200099488,St. David's Episcopal Church,12115 Manchaca Rd,Austin,TX,78748,30.141734,-97.832653
200139103,HOPE Events LLC,1836 San Jacinto Blvd,Austin,TX,78701,30.165611,-97.828382
200159982,Congregation Agudas Achim Austin,710 W Cesar Chavez St,Austin,TX,78701,30.337186,-97.75495
200129075,Thinkery,7900 N FM 620,Austin,TX,78726,30.337186,-97.75495
200139103,East Austin Creative Coalition ,1836 San Jacinto Blvd,Austin,TX,78701,30.165611,-97.828382
200051925,Techco Savvy Inc,111 W William Cannon Dr,Austin,TX,78745,30.192773,-97.779537
200139103,"Huns Rugby Club, LLC",1836 San Jacinto Blvd,Austin,TX,78701,30.165611,-97.828382
200139103,Humane Society of Austin and Travis County,1836 San Jacinto Blvd,Austin,TX,78701,30.165611,-97.828382
200129075,The Texas Wranglers,7900 N FM 620,Austin,TX,78726,30.337186,-97.75495
200144158,Black Makers Market,8218 BURNET Rd,AUSTIN,TX,78757,30.26613,-97.751785
200147928,The Equality Alliance,200 W 6th St,Austin,TX,78701,30.165611,-97.828382
200139103,J.O.I. Community Outreach,1836 San Jacinto Blvd,Austin,TX,78701,30.165611,-97.828382
200139103,Greater Austin Association Of Asian Engineers,1836 San Jacinto Blvd,Austin,TX,78701,30.165611,-97.828382
200099488,St. Julia Catholic Church,12115 Manchaca Rd,Austin,TX,78748,30.141734,-97.832653
200159982,Create4Culture,710 W Cesar Chavez St,Austin,TX,78701,30.337186,-97.75495
200099488,Pecan Street Association INC,12115 Manchaca Rd,Austin,TX,78748,30.141734,-97.832653
200106872,AMERIPOLITAN Awards Productions ,3401 south interstate 35 frontage road ,Austin,TX,78741,30.266484,-97.740231
200139103,Jeff Travillion Campaign,1836 San Jacinto Blvd,Austin,TX,78701,30.165611,-97.828382
200144158,"Black Ex-Students of Texas, Inc.",8218 BURNET Rd,AUSTIN,TX,78757,30.26613,-97.751785
200139103,HOLY VIETNAMESE MARTYRS CHURCH,1836 San Jacinto Blvd,Austin,TX,78701,30.165611,-97.828382
200099488,NORTH AMERICA SEEMA ANDHRA ASSOCIATION,12115 Manchaca Rd,Austin,TX,78748,30.141734,-97.832653
200139103,Indian Dance Endeavor of Austin,1836 San Jacinto Blvd,Austin,TX,78701,30.165611,-97.828382
200139103,Everybody vs. Racism,1836 San Jacinto Blvd,Austin,TX,78701,30.165611,-97.828382
200139103,German Texan Heritage Society,1836 San Jacinto Blvd,Austin,TX,78701,30.165611,-97.828382
200159982,Capital City Men's Chorus DBA Austin Gay Men's Cho,710 W Cesar Chavez St,Austin,TX,78701,30.337186,-97.75495
200144158,Bee Cave Arts Foundation,8218 BURNET Rd,AUSTIN,TX,78757,30.26613,-97.751785
200099488,Rising Soles,12115 Manchaca Rd,Austin,TX,78748,30.141734,-97.832653
200099488,Rancho Alegre Radio (dba Rancho Alegre),12115 Manchaca Rd,Austin,TX,78748,30.141734,-97.832653
200161724,Knights of Columbus Council #10131,2425 Exposition Blvd,Austin,TX,78703,30.297464,-97.767146
200176564,Mobile Loaves & Fishes,539 W Oltorf St,Austin,TX,78704,30.241758,-97.759156
200152624,Texas Land Conservation Conference,3223 E 7th St,Austin,TX,78702,30.266484,-97.740231
200129075,"West House 10th Street, Inc.",7900 N FM 620,Austin,TX,78726,30.337186,-97.75495
200176564,Nan Clayton Elementary PTA ,539 W Oltorf St,Austin,TX,78704,30.241758,-97.759156
200122608,Association of Women in Energy,710 W Cesar Chavez St,Austin,TX,78701,30.337186,-97.75495
200099488,Russell Lee Elementary PTA,12115 Manchaca Rd,Austin,TX,78748,30.141734,-97.832653
200159982,College Houses,710 W Cesar Chavez St,Austin,TX,78701,30.337186,-97.75495
200124095,Austin Asian American Film Festival,710 W Cesar Chavez St,Austin,TX,78701,30.337186,-97.75495
200123797,ATX Chamber Music and Jazz,2701 S Lamar Blvd,Austin,TX,78704,30.141734,-97.832653
200124471,All Saints Episcopal Day School,1830 Simond Ave,Austin,TX,78723,30.165611,-97.828382
200147928,The Foundation for Hope Village,200 W 6th St,Austin,TX,78701,30.165611,-97.828382
200144158,Barton Hills Elem PTA ,8218 BURNET Rd,AUSTIN,TX,78757,30.26613,-97.751785
200129075,Wayside Schools Foundation,7900 N FM 620,Austin,TX,78726,30.337186,-97.75495
200099488,Souper Bowl of Caring dba Tackle Hunger,12115 Manchaca Rd,Austin,TX,78748,30.141734,-97.832653
200139103,EQ Austin,1836 San Jacinto Blvd,Austin,TX,78701,30.165611,-97.828382
200129075,Transfiguration Greek Orthodox Church,7900 N FM 620,Austin,TX,78726,30.337186,-97.75495
200139103,Indian American Coalition of Central Texas,1836 San Jacinto Blvd,Austin,TX,78701,30.165611,-97.828382
200099488,Pease Park Conservancy,12115 Manchaca Rd,Austin,TX,78748,30.141734,-97.832653
200099488,St. Mary's Cathedral,12115 Manchaca Rd,Austin,TX,78748,30.141734,-97.832653
200055958,Zilker Botanical Garden Conservancy,5770 N Mopac Expy,Austin,TX,78731,30.279571,-97.736248
200129075,We Luv Video ,7900 N FM 620,Austin,TX,78726,30.337186,-97.75495
200139103,Greater Austin Asian Chamber of Commerce Foundatio,1836 San Jacinto Blvd,Austin,TX,78701,30.165611,-97.828382
200139539,Austin Japan Community,2701 S Lamar Blvd,Austin,TX,78704,30.141734,-97.832653
200144158,Brigid Shea Campaign,8218 BURNET Rd,AUSTIN,TX,78757,30.26613,-97.751785
200139103,Impressioned Storytellers,1836 San Jacinto Blvd,Austin,TX,78701,30.165611,-97.828382
200176564,Migration by Bluebird,539 W Oltorf St,Austin,TX,78704,30.241758,-97.759156
200129075,US Australian Football League,7900 N FM 620,Austin,TX,78726,30.337186,-97.75495
200161724,Lake Travis Chamber of Commerce,2425 Exposition Blvd,Austin,TX,78703,30.297464,-97.767146
200099488,Rebecca Bell-Metereau Campaign,12115 Manchaca Rd,Austin,TX,78748,30.141734,-97.832653
200129075,The Zachary Cole Foundation,7900 N FM 620,Austin,TX,78726,30.337186,-97.75495
200144158,Austin Public Library Friends Foundation,8218 BURNET Rd,AUSTIN,TX,78757,30.26613,-97.751785
200152624,Texas Food and Wine Alliance,3223 E 7th St,Austin,TX,78702,30.266484,-97.740231
200099488,Save Our Springs Alliance,12115 Manchaca Rd,Austin,TX,78748,30.141734,-97.832653
200139103,E4 Real Estate Foundation,1836 San Jacinto Blvd,Austin,TX,78701,30.165611,-97.828382
200099488,Student Researchers in the Chemical Industries,12115 Manchaca Rd,Austin,TX,78748,30.141734,-97.832653
200161724,League of Women Voters of Texas,2425 Exposition Blvd,Austin,TX,78703,30.297464,-97.767146
200161724,L.C. Anderson High School Project Graduation ,2425 Exposition Blvd,Austin,TX,78703,30.297464,-97.767146
200099488,Ponte En Sus Zapatos,12115 Manchaca Rd,Austin,TX,78748,30.141734,-97.832653
200155404,American Inns of Court Foundation(Austin ch.30432),2701 S Lamar Blvd,Austin,TX,78704,30.141734,-97.832653
200099488,St. Matthew's Episcopal Day School,12115 Manchaca Rd,Austin,TX,78748,30.141734,-97.832653
200099488,Puffed,12115 Manchaca Rd,Austin,TX,78748,30.141734,-97.832653
200099488,SVC Community,12115 Manchaca Rd,Austin,TX,78748,30.141734,-97.832653
200129075,The Tejas Foundation,7900 N FM 620,Austin,TX,78726,30.337186,-97.75495
200129075,United Cares Inc,7900 N FM 620,Austin,TX,78726,30.337186,-97.75495
200139103,FUTURE PROOF BRANDS LLC,1836 San Jacinto Blvd,Austin,TX,78701,30.165611,-97.828382
200099488,One Sample Cultural Foundation,12115 Manchaca Rd,Austin,TX,78748,30.141734,-97.832653
200152624,Texas Hill Country Wineries,3223 E 7th St,Austin,TX,78702,30.266484,-97.740231
200139103,India Catholic Association of Central Texas,1836 San Jacinto Blvd,Austin,TX,78701,30.165611,-97.828382
200139103,"Gamma Eta Lambda Chapter, Alpha Phi Alpha",1836 San Jacinto Blvd,Austin,TX,78701,30.165611,-97.828382
200139103,Impact Austin Foundation,1836 San Jacinto Blvd,Austin,TX,78701,30.165611,-97.828382
200163658,A3 Art Alliance Austin,2220 Barton Springs Rd,Austin,TX,78746,30.165611,-97.828382
200159982,"CT Lobos Youth Academy, Inc.",710 W Cesar Chavez St,Austin,TX,78701,30.337186,-97.75495
200139103,Event Zero Inc.,1836 San Jacinto Blvd,Austin,TX,78701,30.165611,-97.828382
200099488,Performance Institute LLC,12115 Manchaca Rd,Austin,TX,78748,30.141734,-97.832653
200099488,St. Louis King of France Catholic Church,12115 Manchaca Rd,Austin,TX,78748,30.141734,-97.832653
200176564,Monpugh Inc,539 W Oltorf St,Austin,TX,78704,30.241758,-97.759156
200099488,Open Door Preschool,12115 Manchaca Rd,Austin,TX,78748,30.141734,-97.832653
200144158,Boys and Girls Clubs of South Central Texas,8218 BURNET Rd,AUSTIN,TX,78757,30.26613,-97.751785
200152624,Texas Gun Sense,3223 E 7th St,Austin,TX,78702,30.266484,-97.740231
200159982,Dillon Fleharty for Congress,710 W Cesar Chavez St,Austin,TX,78701,30.337186,-97.75495
200159982,Center for Culinary Culture,710 W Cesar Chavez St,Austin,TX,78701,30.337186,-97.75495
200175260,Any Baby Can of Austin,710 W Cesar Chavez St,Austin,TX,78701,30.337186,-97.75495
200139103,EAZYLION INC,1836 San Jacinto Blvd,Austin,TX,78701,30.165611,-97.828382
200176759,Austin Creative Reuse,110 Inner Campus Drive,Austin,TX,78705,30.286095,-97.739297
200159982,CAPITAL AREA COUNSELING,710 W Cesar Chavez St,Austin,TX,78701,30.337186,-97.75495
200161724,Live to Give Foundation,2425 Exposition Blvd,Austin,TX,78703,30.297464,-97.767146
200176564,Maya Guerra Gamble Campaign,539 W Oltorf St,Austin,TX,78704,30.241758,-97.759156
200099488,Shoal Creek Conservancy,12115 Manchaca Rd,Austin,TX,78748,30.141734,-97.832653
200139103,Gente Buena Foundation,1836 San Jacinto Blvd,Austin,TX,78701,30.165611,-97.828382
200129075,Veterans of Foreign Wars Post #4443 Highland Hills,7900 N FM 620,Austin,TX,78726,30.337186,-97.75495
200099488,Sallie A Hunt Foundation,12115 Manchaca Rd,Austin,TX,78748,30.141734,-97.832653
200139103,Headwaters School,1836 San Jacinto Blvd,Austin,TX,78701,30.165611,-97.828382
200139103,Interfaith Action of Central Texas,1836 San Jacinto Blvd,Austin,TX,78701,30.165611,-97.828382
200159982,Capital Factory ,710 W Cesar Chavez St,Austin,TX,78701,30.337186,-97.75495
200159982,DDSS TRADING INC.,710 W Cesar Chavez St,Austin,TX,78701,30.337186,-97.75495
200139103,"Elemental Hospitality Group, LLC",1836 San Jacinto Blvd,Austin,TX,78701,30.165611,-97.828382
200159982,"D.M. Hawke Ventures, LLC",710 W Cesar Chavez St,Austin,TX,78701,30.337186,-97.75495
200176564,MSNS ENTERPRISES INC.,539 W Oltorf St,Austin,TX,78704,30.241758,-97.759156
200139103,"Flying Sidewalks, LLC",1836 San Jacinto Blvd,Austin,TX,78701,30.165611,-97.828382
200144158,Block 21 Service Company LLC,8218 BURNET Rd,AUSTIN,TX,78757,30.26613,-97.751785
200169753,"512 Boutique Events, LLC",1611 W 5th St,Austin,TX,78703,30.165611,-97.828382
200156901,AUSTIN FRESH BURGER BAR FAR WEST LLC,2530 Guadalupe St,Austin,TX,78705,30.141734,-97.832653
106894548,"617 Colorado Street Opco, LLC",9520 HIGHWAY 290 W UNIT A,AUSTIN,TX,78736,30.26613,-97.751785
200159982,"Cherry Lane Ventures, LLC",710 W Cesar Chavez St,Austin,TX,78701,30.337186,-97.75495
200112419,Teresa & Manzanares Inc.,"13530 North Highway 183, Austin, TX, USA",Austin,TX,78750,30.141734,-97.832653
200099488,OLIVIER & JACOB INC.,12115 Manchaca Rd,Austin,TX,78748,30.141734,-97.832653
200144158,Burnet Stores LLC,8218 BURNET Rd,AUSTIN,TX,78757,30.26613,-97.751785
200099488,Quiteno & Escalante Inc.,12115 Manchaca Rd,Austin,TX,78748,30.141734,-97.832653
200164143,525 Slaughter LLC,2401 Lake Austin Blvd,Austin,TX,78703,30.165611,-97.828382
200099488,Randhawaz from Amritsar LLC,12115 Manchaca Rd,Austin,TX,78748,30.141734,-97.832653
200144158,Beltrani & Huezo Inc.,8218 BURNET Rd,AUSTIN,TX,78757,30.26613,-97.751785
200161724,Kudrat Investments Inc.,2425 Exposition Blvd,Austin,TX,78703,30.297464,-97.767146
200092797,7-ELEVEN BEVERAGE COMPANY INC. (2929702),863 Airport Blvd,Austin,TX,78702,30.26613,-97.751785
200159982,Creative Alliance Inc.,710 W Cesar Chavez St,Austin,TX,78701,30.337186,-97.75495
200176564,Nagra Investments Inc.,539 W Oltorf St,Austin,TX,78704,30.241758,-97.759156
200129075,Varianh Corp.,7900 N FM 620,Austin,TX,78726,30.337186,-97.75495
200173139,7-ELEVEN BEVERAGE COMPANY INC.&KEDAR FOOD & GAS LLC,"11643 Research Blvd., Ste. B",Austin,TX,78759,30.414111,-97.746935
200099488,PMCE Stores Inc.,12115 Manchaca Rd,Austin,TX,78748,30.141734,-97.832653
200099488,Star Brands Inc,12115 Manchaca Rd,Austin,TX,78748,30.141734,-97.832653
200170400,7-ELEVEN BEVERAGE COMPANY INC. & MADHUVAN LLC,10800 Research Blvd,Austin,TX,78759,30.402011,-97.746265
200139103,Gandaki Star LLC,1836 San Jacinto Blvd,Austin,TX,78701,30.165611,-97.828382
200099488,PUNJABSTORES2 LLC,12115 Manchaca Rd,Austin,TX,78748,30.141734,-97.832653
200129075,"The Quad Beverage Service, LLC",7900 N FM 620,Austin,TX,78726,30.337186,-97.75495
200099488,Royster Xpress LLC,12115 Manchaca Rd,Austin,TX,78748,30.141734,-97.832653
200127957,71 WEST XPRESS LLC,7800 N IH 35 SVRD Sb,Austin,TX,78752,30.337186,-97.75495
200161724,Kaavya Inc.,2425 Exposition Blvd,Austin,TX,78703,30.297464,-97.767146
200139103,Feel 2 Fill LLC,1836 San Jacinto Blvd,Austin,TX,78701,30.165611,-97.828382
200145397,80 Proof LLC,700 River St,Austin,TX,78701,30.337186,-97.75495
107055184,969 Hyder's  Beer Garden LLC,3131 HIGHWAY 71 E STE 100,AUSTIN,TX,78617,30.266484,-97.740231
200041577,969 Operating LLC,9909 Menchaca Rd,Austin,TX,78748,30.26613,-97.751785
200099488,Stephen & Adonis LLC,12115 Manchaca Rd,Austin,TX,78748,30.141734,-97.832653
200129075,University Food Services Inc ,7900 N FM 620,Austin,TX,78726,30.337186,-97.75495
200100616,1350 WHITEWING INC.,9201 Circuit of the Americas Blvd,Austin,TX,78617,30.26613,-97.751785
200129075,Tribute Hospitality LLC,7900 N FM 620,Austin,TX,78726,30.337186,-97.75495
200095327,AFUGA LLC,7700 FM 969,Austin,TX,78724,30.337186,-97.75495
200096893,Aguasol Tequila LLC,4631 Airport Blvd Suite 112,Austin,TX,78751,30.266484,-97.740231
200166665,The Ai Fleet,2805 San Jacinto Blvd,Austin,TX,78705,30.141734,-97.832653
106876256,Aivin & Yordy LLC,1809 W ANDERSON LN STE 1,AUSTIN,TX,78757,30.165611,-97.828382
200157645,Austin LW Hospitality Corporation,7415 Southwest Pkwy,Austin,TX,78735,30.337186,-97.75495
200068780,ALAMO DH ANDERSON LANE BUYER LLC,31 Navasota St,Austin,TX,78702,30.141734,-97.832653
200064282,ALAMO MUELLER BUYER LLC,106 E 6th St,Austin,TX,78701,30.268076,-97.74232
200072360,ALAMO SLAUGHTER LANE BUYER LLC,200 E 6th St,Austin,TX,78701,30.165611,-97.828382
200100800,ALAMO SOUTH LAMAR BUYER LLC,9505 Burnet Rd,Austin,TX,78758,30.26613,-97.751785
200068508,All Dia LLC,3121 Palm Way,Austin,TX,78758,30.266484,-97.740231
107266511,"Allday Hyde Park, LLC",2700 W ANDERSON LN STE 701,AUSTIN,TX,78757,30.141734,-97.832653
200139103,HEG MANAGER L.L.C.,1836 San Jacinto Blvd,Austin,TX,78701,30.165611,-97.828382
200099488,Path Hotel Six LLC,12115 Manchaca Rd,Austin,TX,78748,30.141734,-97.832653
200159982,CONAUS BEVERAGE LLC,710 W Cesar Chavez St,Austin,TX,78701,30.337186,-97.75495
200153076,Altena Spirits,4007 Commercial Center Dr,Austin,TX,78744,30.266484,-97.740231
200099488,Paseo Hospitality LLC,12115 Manchaca Rd,Austin,TX,78748,30.141734,-97.832653
200156381,Ameragave LLC,4108 S IH 35,Austin,TX,78745,30.266484,-97.740231
200046770,AMG Retail LLC,6731 Legado Ln,Austin,TX,78749,30.337186,-97.75495
200099488,Sarnas Products LLC,12115 Manchaca Rd,Austin,TX,78748,30.141734,-97.832653
200139103,DuBu ATX LLC,1836 San Jacinto Blvd,Austin,TX,78701,30.165611,-97.828382
200129075,WEST ANDERSON FOOD MART LLC,7900 N FM 620,Austin,TX,78726,30.337186,-97.75495
200161724,Madhushala Lamar LLC,2425 Exposition Blvd,Austin,TX,78703,30.297464,-97.767146
200099488,"OCEANFRONT PROPERTY, LLC",12115 Manchaca Rd,Austin,TX,78748,30.141734,-97.832653
200128781,Austin ABE LLC,9521 US 290 W Ste 1,Austin,TX,78736,30.26613,-97.751785
200099488,South Austin ABE LLC,12115 Manchaca Rd,Austin,TX,78748,30.141734,-97.832653
200104746,ANNECY MANAGEMENT L.L.C.,1215 W Anderson Ln.,Austin,TX,78757,30.141734,-97.832653
200144158,Back End LLC,8218 BURNET Rd,AUSTIN,TX,78757,30.26613,-97.751785
200159982,"DMAT, LLC",710 W Cesar Chavez St,Austin,TX,78701,30.337186,-97.75495
200144158,"Bendecidos, LLC",8218 BURNET Rd,AUSTIN,TX,78757,30.26613,-97.751785
200114552,ASAHI AUSTIN LLC,1100 S Lamar Blvd Suite 1130,Austin,TX,78704,30.255718,-97.762544
200144158,Baani Group Inc,8218 BURNET Rd,AUSTIN,TX,78757,30.26613,-97.751785
200108314,Aspritza LLC,440 E St Elmo Rd,Austin,TX,78745,30.266484,-97.740231
200159982,Cyprien Musabwa,710 W Cesar Chavez St,Austin,TX,78701,30.337186,-97.75495
200156715,Asylum CC LLC,501 W Canyon Ridge Dr,Austin,TX,78753,30.266484,-97.740231
107033886,Ata Tequila LLC,3005 S LAMAR BLVD STE B-105B,AUSTIN,TX,78704,30.141734,-97.832653
200139103,Guckenheimer Services LLC,1836 San Jacinto Blvd,Austin,TX,78701,30.165611,-97.828382
200167915,AUSBW SPIRITS LLC,700 River St,Austin,TX,78701,30.337186,-97.75495
200133998,Abdul Patel Enterprises Inc.,2804 N Interstate Hwy 35,Austin,TX,78705,30.141734,-97.832653
200099488,San Angel Food and Beverage LLC,12115 Manchaca Rd,Austin,TX,78748,30.141734,-97.832653
200089578,AUSTIN BEERWORKS LLC ,6010 Long Champ Ct,Austin,TX,78746,30.279571,-97.736248
200079320,AUSTIN BEL LLC,7601 E Ben White Blvd,Austin,TX,78741,30.337186,-97.75495
200160870,"Austin Catering Co., L.L.C.",1916 Fort View Rd,Austin,TX,78704,30.165611,-97.828382
200123394,Austin Craft Brewing Company LLC,6801 Airport Blvd,Austin,TX,78752,30.337186,-97.75495
200077301,AUSTIN DAIQUIRI FACTORY LLC,10300 Springdale Road Suite 101,Austin,TX,78754,30.297585,-97.705009
200067496,Austin Eagle LLC,9515 Hotel Dr,Austin,TX,78719,30.26613,-97.751785
200051925,"Tejas Thurmond, LLC",111 W William Cannon Dr,Austin,TX,78745,30.348135,-97.721754
200129075,"TJC Management Co. Gp, Lp",7900 N FM 620,Austin,TX,78726,30.337186,-97.75495
200128563,"Austin Kolache & Koffee, LLC",4700 Burleson Rd,Austin,TX,78744,30.266484,-97.740231
106862939,AOGWB Inc,2000 E 12TH ST,AUSTIN,TX,78702,30.165611,-97.828382
200081985,AOC 1 LLC,8201 Cross Park Dr,Austin,TX,78754,30.26613,-97.751785
200144158,Austin Snooker And Billiard Tavern LLC,8218 BURNET Rd,AUSTIN,TX,78757,30.26613,-97.751785
200099488,Sun Development & Management Corporation,12115 Manchaca Rd,Austin,TX,78748,30.141734,-97.832653
200144158,Austin Warehouse and Distribution Inc.,8218 BURNET Rd,AUSTIN,TX,78757,30.26613,-97.751785
200139103,Gulf Coast Guys Franchise 1 LLC,1836 San Jacinto Blvd,Austin,TX,78701,30.165611,-97.828382
200144158,AustinLiu LLC,8218 BURNET Rd,AUSTIN,TX,78757,30.26613,-97.751785
200129075,Young's Restaurant Group LLC,7900 N FM 620,Austin,TX,78726,30.337186,-97.75495
200176564,Midwest Advantage LLC,539 W Oltorf St,Austin,TX,78704,30.241758,-97.759156
200139103,Fortune Restaurant Austin LLC,1836 San Jacinto Blvd,Austin,TX,78701,30.165611,-97.828382
200144158,"Bambino Pizza, LLC",8218 BURNET Rd,AUSTIN,TX,78757,30.26613,-97.751785
200144158,Banjoo INC,8218 BURNET Rd,AUSTIN,TX,78757,30.26613,-97.751785
200108629,"88 1/2 Rainey St OpCo, LLC",6406 N Interstate 35 Ste 2760 ,Austin,TX,78752,30.337186,-97.75495
200099488,PT Group Austin LLC,12115 Manchaca Rd,Austin,TX,78748,30.141734,-97.832653
200144158,Baretto Bistro Inc,8218 BURNET Rd,AUSTIN,TX,78757,30.26613,-97.751785
200139103,Jona Social LLC,1836 San Jacinto Blvd,Austin,TX,78701,30.165611,-97.828382
200144158,BARLEY BEAN SOUTH LAMAR LLC,8218 BURNET Rd,AUSTIN,TX,78757,30.26613,-97.751785
200144158,BARR MANSION INC.,8218 BURNET Rd,AUSTIN,TX,78757,30.26613,-97.751785
200139103,"Double Trouble ATX, LLC",1836 San Jacinto Blvd,Austin,TX,78701,30.165611,-97.828382
200144158,BEE CAVES EXPRESS LLC,8218 BURNET Rd,AUSTIN,TX,78757,30.26613,-97.751785
200144158,"Barzon, LLC",8218 BURNET Rd,AUSTIN,TX,78757,30.26613,-97.751785
200113789,6th Street Happy Chicks LLC,"3600 south lamar Blvd,",Austin,TX,78704,30.266484,-97.740231
200099488,SJDJ LLC,12115 Manchaca Rd,Austin,TX,78748,30.141734,-97.832653
200055958,ZULCHICH LLC,5770 N Mopac Expy,Austin,TX,78731,30.279571,-97.736248
200144158,BTM ATX LLC,8218 BURNET Rd,AUSTIN,TX,78757,30.26613,-97.751785
200144158,BIAGIO & CO. LLC,8218 BURNET Rd,AUSTIN,TX,78757,30.26613,-97.751785
200144158,BIG CHILL DAIQUIRIS LLC,8218 BURNET Rd,AUSTIN,TX,78757,30.26613,-97.751785
200144158,BILL'S HOSPITALITY GROUP LLC,8218 BURNET Rd,AUSTIN,TX,78757,30.26613,-97.751785
200144158,Bird Dog BBQ LLC,8218 BURNET Rd,AUSTIN,TX,78757,30.26613,-97.751785
200144158,BIRDIE'S LUNCHEONETTE OPERATING COMPANY LLC,8218 BURNET Rd,AUSTIN,TX,78757,30.26613,-97.751785
200099488,RAMIS SERVICES LLC,12115 Manchaca Rd,Austin,TX,78748,30.141734,-97.832653
200129075,Vidya Vinayaka LLC,7900 N FM 620,Austin,TX,78726,30.337186,-97.75495
200144158,BISHOP CIDER COMPANY LLC,8218 BURNET Rd,AUSTIN,TX,78757,30.26613,-97.751785
200128276,512 Crestview Group LLC,4707 Burnet Rd,Austin,TX,78756,30.266484,-97.740231
200144158,BLACKS BEVERAGE CO LLC,8218 BURNET Rd,AUSTIN,TX,78757,30.26613,-97.751785
200144158,BLANCO RIO KG LLC,8218 BURNET Rd,AUSTIN,TX,78757,30.26613,-97.751785
200152725,Austin Lazertag LLC,600 E Riverside Dr,Austin,TX,78704,30.279571,-97.736248
200144158,Blindside Lounge LLC,8218 BURNET Rd,AUSTIN,TX,78757,30.26613,-97.751785
200144158,BLUE SUEDE LLC,8218 BURNET Rd,AUSTIN,TX,78757,30.26613,-97.751785
200139103,EURASIA 4 LLC,1836 San Jacinto Blvd,Austin,TX,78701,30.165611,-97.828382
200144158,BLUEFIN ARBORETUM LLC,8218 BURNET Rd,AUSTIN,TX,78757,30.26613,-97.751785
200098039,"1107 East 6th Entertainment, LLC",1701 W Ben White Blvd ,Austin,TX,78704,30.165611,-97.828382
200144158,Blurred Vines LLC,8218 BURNET Rd,AUSTIN,TX,78757,30.26613,-97.751785
200144158,"BOA Austin, LLC",8218 BURNET Rd,AUSTIN,TX,78757,30.26613,-97.751785
200139103,GOW HOLDINGS LLC,1836 San Jacinto Blvd,Austin,TX,78701,30.165611,-97.828382
200144158,Boheme Management LLC,8218 BURNET Rd,AUSTIN,TX,78757,30.26613,-97.751785
200144158,Bombay to Kathmandu Kitchen LLc,8218 BURNET Rd,AUSTIN,TX,78757,30.26613,-97.751785
200161724,LENOIR RESTAURANT LLC,2425 Exposition Blvd,Austin,TX,78703,30.297464,-97.767146
200144158,"Bottega Bois, LLC",8218 BURNET Rd,AUSTIN,TX,78757,30.26613,-97.751785
200129075,Vanenglish Enterprises Inc.,7900 N FM 620,Austin,TX,78726,30.337186,-97.75495
200144158,BA2 GP LLC,8218 BURNET Rd,AUSTIN,TX,78757,30.26613,-97.751785
200144158,BP AGAVE SPIRITS LLC,8218 BURNET Rd,AUSTIN,TX,78757,30.26613,-97.751785
200144158,Bradford Airport Logistics Ltd.,8218 BURNET Rd,AUSTIN,TX,78757,30.26613,-97.751785
200144158,Bradshaw Market LLC,8218 BURNET Rd,AUSTIN,TX,78757,30.26613,-97.751785
200144158,BRANDT BALLROOM LLC,8218 BURNET Rd,AUSTIN,TX,78757,30.26613,-97.751785
200144158,BRAZOS CONCESSIONS CO./SALT LICK JOINT VENTURE,8218 BURNET Rd,AUSTIN,TX,78757,30.26613,-97.751785
200144158,Brazos Restaurant LLC,8218 BURNET Rd,AUSTIN,TX,78757,30.26613,-97.751785
200099488,Some Investment LLC,12115 Manchaca Rd,Austin,TX,78748,30.141734,-97.832653
200136151,175 Oldstage SBB Partners LLC,4404 Brandt Rd,Austin,TX,78744,30.266484,-97.740231
200147928,The Cheese Boat LLC,200 W 6th St,Austin,TX,78701,30.165611,-97.828382
200144158,Brushy Street Club LLC,8218 BURNET Rd,AUSTIN,TX,78757,30.26613,-97.751785
200099488,Noor Mak LLC,12115 Manchaca Rd,Austin,TX,78748,30.141734,-97.832653
200139301,AM FAMILY BIZ LLC,11630 Menchaca Rd,Austin,TX,78748,30.150488,-97.833681
200099488,SIDHPUREE FAMILY BIZ LLC,12115 Manchaca Rd,Austin,TX,78748,30.141734,-97.832653
200144158,AZEL ASHER LLC,8218 BURNET Rd,AUSTIN,TX,78757,30.26613,-97.751785
200168409,"8619 Burnet, LLC",501 N Interstate Hwy 35,Austin,TX,78702,30.266484,-97.740231
200139103,DPM BUSINESS INC.,1836 San Jacinto Blvd,Austin,TX,78701,30.165611,-97.828382
200144158,Bulevar Arboretum LLC,8218 BURNET Rd,AUSTIN,TX,78757,30.26613,-97.751785
200139103,JAMS INVESTMENT GROUP LLC,1836 San Jacinto Blvd,Austin,TX,78701,30.165611,-97.828382
200063098,83 Rainey Group LLC,1071 Springdale Rd,Austin,TX,78721,30.272082,-97.690891
200158522,ANOKHI BUSINESS INC,8619 Burnet Rd,Austin,TX,78757,30.26613,-97.751785
200099488,PWFA 2 THE MOON LLC,12115 Manchaca Rd,Austin,TX,78748,30.141734,-97.832653
200102066,"Busty's Bar, LLC",6214 Cameron Rd,Austin,TX,78723,30.337186,-97.75495
200092349,Ann And Ben LLC,11907 Menchaca Rd,Austin,TX,78748,30.146485,-97.832711
106920183,C.L. BUTAUD WINES L.L.C.,415 E St Elmo Rd,Austin,TX,78745,30.266484,-97.740231
200144158,"7th & Shady, LLC",8218 BURNET Rd,AUSTIN,TX,78757,30.26613,-97.751785
200159982,Cafe Creme Downtown LLC,710 W Cesar Chavez St,Austin,TX,78701,30.337186,-97.75495
200161724,Largesse Hospitality LLC,2425 Exposition Blvd,Austin,TX,78703,30.297464,-97.767146
200116226,"DNC AUS Plus F&B, LLC",3600 Presidential Blvd Suite 3787,Austin,TX,78719,30.266484,-97.740231
200139103,G LODGING MANAGEMENT LLC,1836 San Jacinto Blvd,Austin,TX,78701,30.165611,-97.828382
200067231,AIRPORT W2 BEVCO LLC,5012 E 7th Street,Austin,TX,78702,30.266484,-97.740231
200099488,Pyramid East Street Austin Management LLC,12115 Manchaca Rd,Austin,TX,78748,30.141734,-97.832653
200159982,CAMERON BUSINESS LLC,710 W Cesar Chavez St,Austin,TX,78701,30.337186,-97.75495
200161724,LINDA L.L.C.,2425 Exposition Blvd,Austin,TX,78703,30.297464,-97.767146
200159982,CANJE 19 LLC,710 W Cesar Chavez St,Austin,TX,78701,30.337186,-97.75495
200152624,TEXMEX RAINEY LLC,3223 E 7th St,Austin,TX,78702,30.266484,-97.740231
200159982,"Cape Bottle Room, LLC",710 W Cesar Chavez St,Austin,TX,78701,30.337186,-97.75495
200159982,CAPITAL CITY POST NO. 8787 VETERANS OF FOREIGN WARS,710 W Cesar Chavez St,Austin,TX,78701,30.337186,-97.75495
200159982,"Capital Reyes Distributing, L.L.C.",710 W Cesar Chavez St,Austin,TX,78701,30.337186,-97.75495
200159982,Capitol Cafe LLC,710 W Cesar Chavez St,Austin,TX,78701,30.337186,-97.75495
200159982,Capitol Cafe 1836 LLC,710 W Cesar Chavez St,Austin,TX,78701,30.337186,-97.75495
200161724,LAMAR BIZ LLC,2425 Exposition Blvd,Austin,TX,78703,30.297464,-97.767146
200159982,Caprice Austin LLC,710 W Cesar Chavez St,Austin,TX,78701,30.337186,-97.75495
200099488,QUACK'S 43RD ST. BAKERY LLC,12115 Manchaca Rd,Austin,TX,78748,30.141734,-97.832653
200069362,AL FAR & DEEN LLC,1001 Congress Ave.,Austin,TX,78701,30.271854,-97.740991
200159982,CARVE RESTAURANTS LLC,710 W Cesar Chavez St,Austin,TX,78701,30.337186,-97.75495
200144158,Bianca Hospitality LLC,8218 BURNET Rd,AUSTIN,TX,78757,30.26613,-97.751785
200159982,Casa do Brasil Austin LLC,710 W Cesar Chavez St,Austin,TX,78701,30.337186,-97.75495
200099488,RND PARTNERS LLC,12115 Manchaca Rd,Austin,TX,78748,30.141734,-97.832653
200176564,MUNNA & DUKE LLC,539 W Oltorf St,Austin,TX,78704,30.241758,-97.759156
200159982,CASA MARIA MEXICAN RESTAURANT KYLE TX INC,710 W Cesar Chavez St,Austin,TX,78701,30.337186,-97.75495
200159982,CASA MORENO'S LLC,710 W Cesar Chavez St,Austin,TX,78701,30.337186,-97.75495
200159982,CASITA GUANAJUATO INC.,710 W Cesar Chavez St,Austin,TX,78701,30.337186,-97.75495
200159982,"Catrina's Tacos & Margaritas, LLC",710 W Cesar Chavez St,Austin,TX,78701,30.337186,-97.75495
200159982,CHNA-WEHBE LLC,710 W Cesar Chavez St,Austin,TX,78701,30.337186,-97.75495
200176564,MP-MKT LLC,539 W Oltorf St,Austin,TX,78704,30.241758,-97.759156
200159982,CENOTE LLC,710 W Cesar Chavez St,Austin,TX,78701,30.337186,-97.75495
200061348,1700 ECC LLC,1519 W Anderson Ln,Austin,TX,78757,30.165611,-97.828382
200159982,CHAPARRAL CAFE LLC,710 W Cesar Chavez St,Austin,TX,78701,30.337186,-97.75495
200129075,YSYY Investment Inc.,7900 N FM 620,Austin,TX,78726,30.337186,-97.75495
200099488,Pentola LLC,12115 Manchaca Rd,Austin,TX,78748,30.141734,-97.832653
200129075,Wolf Solutions Group LLC,7900 N FM 620,Austin,TX,78726,30.337186,-97.75495
200159982,Chichos Restaurant LLC,710 W Cesar Chavez St,Austin,TX,78701,30.337186,-97.75495
200176564,NAYARITA INC,539 W Oltorf St,Austin,TX,78704,30.241758,-97.759156
200159982,Chipotle Texas LLC,710 W Cesar Chavez St,Austin,TX,78701,30.337186,-97.75495
200176564,NC MOUNTAIN SUSHI INC,539 W Oltorf St,Austin,TX,78704,30.241758,-97.759156
200161724,Liquid Assets Group LLC,2425 Exposition Blvd,Austin,TX,78703,30.297464,-97.767146
200149106,311 Club LLC,15424 FM 1825  ,Austin,TX,78660,30.165611,-97.828382
200159982,CHUY'S OPCO INC.,710 W Cesar Chavez St,Austin,TX,78701,30.337186,-97.75495
200176564,MIA JOINT VENTURE LLC,539 W Oltorf St,Austin,TX,78704,30.241758,-97.759156
200159982,CISCO'S RESTAURANT BAKERY & BAR LLC,710 W Cesar Chavez St,Austin,TX,78701,30.337186,-97.75495
200159982,"Citizens of Burnet, LLC",710 W Cesar Chavez St,Austin,TX,78701,30.337186,-97.75495
200159982,Civil Goat Coffee Ltd Co.,710 W Cesar Chavez St,Austin,TX,78701,30.337186,-97.75495
200099488,"Sanbin Liquor Company, LLC",12115 Manchaca Rd,Austin,TX,78748,30.141734,-97.832653
200159982,COAM BEVERAGE INC.,710 W Cesar Chavez St,Austin,TX,78701,30.337186,-97.75495
200139103,Jam City LLC,1836 San Jacinto Blvd,Austin,TX,78701,30.165611,-97.828382
200139103,Flowers Community Garden LLC,1836 San Jacinto Blvd,Austin,TX,78701,30.165611,-97.828382
200159982,Con Vista Al Mar LLC,710 W Cesar Chavez St,Austin,TX,78701,30.337186,-97.75495
200159982,Deep LLC,710 W Cesar Chavez St,Austin,TX,78701,30.337186,-97.75495
200161724,"Lamar Ventures, LLC",2425 Exposition Blvd,Austin,TX,78703,30.297464,-97.767146
200159982,"CBX 3 Ventures, LLC",710 W Cesar Chavez St,Austin,TX,78701,30.337186,-97.75495
200176564,"Menchaca Ventures, LLC",539 W Oltorf St,Austin,TX,78704,30.241758,-97.759156
200129075,Walid  Singh Hospitality LLC,7900 N FM 620,Austin,TX,78726,30.337186,-97.75495
200139103,HA & TA LLC,1836 San Jacinto Blvd,Austin,TX,78701,30.165611,-97.828382
200159982,Cosmic East LLC,710 W Cesar Chavez St,Austin,TX,78701,30.337186,-97.75495
200166106,"2323 South Lamar Beverage, LLC",4610 Ranch Rd 620 N,Austin,TX,78732,30.266484,-97.740231
200139103,E&Z LLC,1836 San Jacinto Blvd,Austin,TX,78701,30.165611,-97.828382
200159982,Country Luau Spirits Corporation,710 W Cesar Chavez St,Austin,TX,78701,30.337186,-97.75495
107251153,Aliza Investment LLC,2907 E 12TH ST,AUSTIN,TX,78702,30.141734,-97.832653
200159982,CHOP Concessions LLC,710 W Cesar Chavez St,Austin,TX,78701,30.337186,-97.75495
200139103,"HI360-Austin, LLC",1836 San Jacinto Blvd,Austin,TX,78701,30.165611,-97.828382
200159982,"Courtyard Club OpCo, LLC",710 W Cesar Chavez St,Austin,TX,78701,30.337186,-97.75495
200159982,Cr@zy Conchaz LLC,710 W Cesar Chavez St,Austin,TX,78701,30.337186,-97.75495
200159982,Craft Omakase LLC,710 W Cesar Chavez St,Austin,TX,78701,30.337186,-97.75495
200099488,PHU HU INVESTMENT LLC,12115 Manchaca Rd,Austin,TX,78748,30.141734,-97.832653
200159982,Crazy Fruits 2 LLC,710 W Cesar Chavez St,Austin,TX,78701,30.337186,-97.75495
200099488,ONE EYED ODIN L.L.C.,12115 Manchaca Rd,Austin,TX,78748,30.141734,-97.832653
200099488,Reed Family Hospitality Inc,12115 Manchaca Rd,Austin,TX,78748,30.141734,-97.832653
200102326,AMINABADIZ LLC,4400 N Lamar Blvd,Austin,TX,78756,30.266484,-97.740231
200139103,Eleanor's Coffee Shop,1836 San Jacinto Blvd,Austin,TX,78701,30.165611,-97.828382
200159982,Culture Club Austin LLC,710 W Cesar Chavez St,Austin,TX,78701,30.337186,-97.75495
200139103,EATX COFFEE LLC,1836 San Jacinto Blvd,Austin,TX,78701,30.165611,-97.828382
200139103,E.T.B. INC.,1836 San Jacinto Blvd,Austin,TX,78701,30.165611,-97.828382
200159982,Dainty Dillo Austin LLC,710 W Cesar Chavez St,Austin,TX,78701,30.337186,-97.75495
200129075,"TTP'S ESTATE,LLC",7900 N FM 620,Austin,TX,78726,30.337186,-97.75495
200159982,DANB TEXAS INC.,710 W Cesar Chavez St,Austin,TX,78701,30.337186,-97.75495
200159982,Day Dreamer Collective LLC,710 W Cesar Chavez St,Austin,TX,78701,30.337186,-97.75495
200041303,80 Rainey Daydreamer LLC,7101 E William Cannon Dr,Austin,TX,78744,30.337186,-97.75495
200139103,"J & T Restaurants Tres, LLC",1836 San Jacinto Blvd,Austin,TX,78701,30.165611,-97.828382
200159982,DB LIQUOR PARMER LLC,710 W Cesar Chavez St,Austin,TX,78701,30.337186,-97.75495
200099488,Samjuben LLC,12115 Manchaca Rd,Austin,TX,78748,30.141734,-97.832653
200099488,SUNFLAKES COFFEE INC,12115 Manchaca Rd,Austin,TX,78748,30.141734,-97.832653
200159982,DEL VALLE MARKET LLC,710 W Cesar Chavez St,Austin,TX,78701,30.337186,-97.75495
200159982,DELMY'S PUPUSERIA LLC,710 W Cesar Chavez St,Austin,TX,78701,30.337186,-97.75495
200152624,"TEXAS STAR PIZZA - SW AUSTIN, LLC",3223 E 7th St,Austin,TX,78702,30.266484,-97.740231
200099488,Riaz Inc,12115 Manchaca Rd,Austin,TX,78748,30.141734,-97.832653
200159982,DMC Kitchen LLC,710 W Cesar Chavez St,Austin,TX,78701,30.337186,-97.75495
200159982,"DHANUSH ENTERPRISES, LLC.",710 W Cesar Chavez St,Austin,TX,78701,30.337186,-97.75495
200159982,Dionysus Beer & Wine LLC,710 W Cesar Chavez St,Austin,TX,78701,30.337186,-97.75495
200159982,Dish South First LLC,710 W Cesar Chavez St,Austin,TX,78701,30.337186,-97.75495
200159982,"Dish Mueller, LLC",710 W Cesar Chavez St,Austin,TX,78701,30.337186,-97.75495
200159982,DISTILLED LLC,710 W Cesar Chavez St,Austin,TX,78701,30.337186,-97.75495
200097055,1703 GUADALUPE LP,1310 W Howard Ln,Austin,TX,78728,30.141734,-97.832653
200174221,306 Roostadizz LLC,8907 Circle Dr,Austin,TX,78736,30.26613,-97.751785
200139103,Dog Haus Austin Concessions LLC,1836 San Jacinto Blvd,Austin,TX,78701,30.165611,-97.828382
200139103,Dollar Mundo LLC,1836 San Jacinto Blvd,Austin,TX,78701,30.165611,-97.828382
200139103,GARCIA ATX LLC,1836 San Jacinto Blvd,Austin,TX,78701,30.165611,-97.828382
200099488,"Rico Spirits, LLC",12115 Manchaca Rd,Austin,TX,78748,30.141734,-97.832653
200176564,"Mearna, LLC",539 W Oltorf St,Austin,TX,78704,30.241758,-97.759156
200139103,Dong Nai Restaurant LLC,1836 San Jacinto Blvd,Austin,TX,78701,30.165611,-97.828382
200124903,11301 Donkey LLC,8807 N Lamar Blvd Units C and D,Austin,TX,78753,30.26613,-97.751785
200139103,JJIM BBQ LLC,1836 San Jacinto Blvd,Austin,TX,78701,30.165611,-97.828382
200139103,"Dooz Imports, LLC",1836 San Jacinto Blvd,Austin,TX,78701,30.165611,-97.828382
200139103,Gpo Regio Operations LLC,1836 San Jacinto Blvd,Austin,TX,78701,30.165611,-97.828382
200043531,"Ashuna, LLC",4211 S Lamar Blvd Ste E1,Austin,TX,78704,30.266484,-97.740231
200139103,HEI  AUSTIN CONCESSIONS LLC,1836 San Jacinto Blvd,Austin,TX,78701,30.165611,-97.828382
200129075,Traveling Mulberrys LLC,7900 N FM 620,Austin,TX,78726,30.337186,-97.75495
200159982,CP Austin - 11th St LLC,710 W Cesar Chavez St,Austin,TX,78701,30.337186,-97.75495
200139103,Drink Slingers LLC,1836 San Jacinto Blvd,Austin,TX,78701,30.165611,-97.828382
200139103,Drinks Backyard LLC,1836 San Jacinto Blvd,Austin,TX,78701,30.165611,-97.828382
200139103,DROPOFF INC.,1836 San Jacinto Blvd,Austin,TX,78701,30.165611,-97.828382
200099488,SRF UNITED ENTERPRISES LLC,12115 Manchaca Rd,Austin,TX,78748,30.141734,-97.832653
200159982,"Chen Xian, Inc.",710 W Cesar Chavez St,Austin,TX,78701,30.337186,-97.75495
200139103,East Side Pies LLC,1836 San Jacinto Blvd,Austin,TX,78701,30.165611,-97.828382
200139103,EAST VILLAGE LIQUOR LLC,1836 San Jacinto Blvd,Austin,TX,78701,30.165611,-97.828382
200139103,EAST VILLAGE MARKET LLC,1836 San Jacinto Blvd,Austin,TX,78701,30.165611,-97.828382
200139103,Eastside Paddle Club,1836 San Jacinto Blvd,Austin,TX,78701,30.165611,-97.828382
200176564,Nc Lin Investment Inc,539 W Oltorf St,Austin,TX,78704,30.241758,-97.759156
200176564,MO'Cracked LLC,539 W Oltorf St,Austin,TX,78704,30.241758,-97.759156
200139103,El Alma South LLC ,1836 San Jacinto Blvd,Austin,TX,78701,30.165611,-97.828382
200051925,"Team Four, LLC",111 W William Cannon Dr,Austin,TX,78745,30.348135,-97.721754
200139103,El Gran Agazajo Bar & Grill LLC,1836 San Jacinto Blvd,Austin,TX,78701,30.165611,-97.828382
200041654,Amigos United,"13376 North Highway 183, Suite 400",Austin,TX,78750,30.141734,-97.832653
200176564,Molens Food INC.,539 W Oltorf St,Austin,TX,78704,30.241758,-97.759156
200139103,JL JAIMES LLC,1836 San Jacinto Blvd,Austin,TX,78701,30.165611,-97.828382
200139103,"El Oceano Sports Bar and Mariscos, LLC",1836 San Jacinto Blvd,Austin,TX,78701,30.165611,-97.828382
200139103,El Perrito LLC,1836 San Jacinto Blvd,Austin,TX,78701,30.165611,-97.828382
200139103,El Rancho Sports Bar Inc,1836 San Jacinto Blvd,Austin,TX,78701,30.165611,-97.828382
200139103,"Guerrilla Dining Concepts, LLC ",1836 San Jacinto Blvd,Austin,TX,78701,30.165611,-97.828382
200161724,LEON RESTAURANTES LLC,2425 Exposition Blvd,Austin,TX,78703,30.297464,-97.767146
200099488,Poiman Hospitality Limited Liability Company,12115 Manchaca Rd,Austin,TX,78748,30.141734,-97.832653
200139103,ES USA CONCESSIONS LLC,1836 San Jacinto Blvd,Austin,TX,78701,30.165611,-97.828382
200139103,ELECTRICO SPIRITS IMPORTERS LLC,1836 San Jacinto Blvd,Austin,TX,78701,30.165611,-97.828382
200159982,DBG AUSTIN DOMAIN LLC,710 W Cesar Chavez St,Austin,TX,78701,30.337186,-97.75495
200159982,CP Austin LLC,710 W Cesar Chavez St,Austin,TX,78701,30.337186,-97.75495
200051379,1267 Restaurant LLC,91 Red River St,Austin,TX,78701,30.26613,-97.751785
200099488,"STONEBRIDGE COMPANIES, LLC",12115 Manchaca Rd,Austin,TX,78748,30.141734,-97.832653
200099488,Prequel LLC,12115 Manchaca Rd,Austin,TX,78748,30.141734,-97.832653
200139103,EMILIO WINE CORP.,1836 San Jacinto Blvd,Austin,TX,78701,30.165611,-97.828382
200139103,Ensemble Beverages,1836 San Jacinto Blvd,Austin,TX,78701,30.165611,-97.828382
200139103,Epic Western Cocktail Company LLC ,1836 San Jacinto Blvd,Austin,TX,78701,30.165611,-97.828382
200161724,LE COQ ROUGE LLC,2425 Exposition Blvd,Austin,TX,78703,30.297464,-97.767146
200139103,Escuela Vieja LLC,1836 San Jacinto Blvd,Austin,TX,78701,30.165611,-97.828382
200139103,Este Beverages LLC,1836 San Jacinto Blvd,Austin,TX,78701,30.165611,-97.828382
200129075,Top Eurasia LLC ,7900 N FM 620,Austin,TX,78726,30.337186,-97.75495
200099488,SBKOSHI LLC,12115 Manchaca Rd,Austin,TX,78748,30.141734,-97.832653
200099488,PSPR LLC,12115 Manchaca Rd,Austin,TX,78748,30.141734,-97.832653
200176564,MBRAYS LLC,539 W Oltorf St,Austin,TX,78704,30.241758,-97.759156
200139103,EX FILES SPORTS BAR LLC,1836 San Jacinto Blvd,Austin,TX,78701,30.165611,-97.828382
200055958,ZN RETAIL INC,5770 N Mopac Expy,Austin,TX,78731,30.279571,-97.736248
200099488,"Nole 13, LLC",12115 Manchaca Rd,Austin,TX,78748,30.141734,-97.832653
200099488,Plates by Je LLC,12115 Manchaca Rd,Austin,TX,78748,30.141734,-97.832653
106876258,Anayra LLC,1601 E 5TH ST STE 103,AUSTIN,TX,78702,30.165611,-97.828382
200159982,CORWELL ENTERPRISES INC.,710 W Cesar Chavez St,Austin,TX,78701,30.337186,-97.75495
200085562,AHTRST CONCESSIONS LLC,2708 E Cesar Chavez St,Austin,TX,78702,30.141734,-97.832653
200139103,FAIRWAYS CANTINA LLC,1836 San Jacinto Blvd,Austin,TX,78701,30.165611,-97.828382
200176564,MPB FAJITAS AUSTIN MOPAC LLC,539 W Oltorf St,Austin,TX,78704,30.241758,-97.759156
200099488,SANTINO'S PLACE LLC,12115 Manchaca Rd,Austin,TX,78748,30.141734,-97.832653
200139103,FAMILY DOLLAR STORES OF TEXAS LLC,1836 San Jacinto Blvd,Austin,TX,78701,30.165611,-97.828382
200139103,Indigo ATX LLC,1836 San Jacinto Blvd,Austin,TX,78701,30.165611,-97.828382
200159982,COUSINS FAREGROUND BEVERAGE COMPANY LLC,710 W Cesar Chavez St,Austin,TX,78701,30.337186,-97.75495
200139103,FARM ALE BREWERY LLC,1836 San Jacinto Blvd,Austin,TX,78701,30.165611,-97.828382
200139103,"Fargo ATX, LLC",1836 San Jacinto Blvd,Austin,TX,78701,30.165611,-97.828382
200139103,FAST FRIENDS TX LLC,1836 San Jacinto Blvd,Austin,TX,78701,30.165611,-97.828382
200139103,GPM SOUTHEAST LLC,1836 San Jacinto Blvd,Austin,TX,78701,30.165611,-97.828382
200176564,MEIWEI LLC,539 W Oltorf St,Austin,TX,78704,30.241758,-97.759156
200139103,Fat Rabbit & Co LLC,1836 San Jacinto Blvd,Austin,TX,78701,30.165611,-97.828382
200139103,Gogo Ventures Stassney Inc,1836 San Jacinto Blvd,Austin,TX,78701,30.165611,-97.828382
200139103,"Feral Housewife, LLC",1836 San Jacinto Blvd,Austin,TX,78701,30.165611,-97.828382
200139103,Fetch Package Inc.,1836 San Jacinto Blvd,Austin,TX,78701,30.165611,-97.828382
200139103,FIERCE WHISKERS DISTILLERY LLC,1836 San Jacinto Blvd,Austin,TX,78701,30.165611,-97.828382
200139103,Fig and Brie Austin LLC,1836 San Jacinto Blvd,Austin,TX,78701,30.165611,-97.828382
200139103,JMOT LLC,1836 San Jacinto Blvd,Austin,TX,78701,30.165611,-97.828382
200139103,FIGURE 8 COFFEE PURVEYORS LLC,1836 San Jacinto Blvd,Austin,TX,78701,30.165611,-97.828382
200144158,Barton C Store Inc,8218 BURNET Rd,AUSTIN,TX,78757,30.26613,-97.751785
200139103,East Riverside C Store Inc,1836 San Jacinto Blvd,Austin,TX,78701,30.165611,-97.828382
200144158,Burnet C Store Inc,8218 BURNET Rd,AUSTIN,TX,78757,30.26613,-97.751785
200139103,First Light Books LLC,1836 San Jacinto Blvd,Austin,TX,78701,30.165611,-97.828382
200139103,FW East Village LLC,1836 San Jacinto Blvd,Austin,TX,78701,30.165611,-97.828382
200139103,"Fish Shop, LLC",1836 San Jacinto Blvd,Austin,TX,78701,30.165611,-97.828382
200139103,FFBC OPERATIONS LLC,1836 San Jacinto Blvd,Austin,TX,78701,30.165611,-97.828382
200099488,PECOS FLAIR LLC,12115 Manchaca Rd,Austin,TX,78748,30.141734,-97.832653
200139103,Flourish Plant Shop & Wine Bar LLC,1836 San Jacinto Blvd,Austin,TX,78701,30.165611,-97.828382
200139103,Fogo de Chao Churrascaria (Austin Congress) LLC,1836 San Jacinto Blvd,Austin,TX,78701,30.165611,-97.828382
200099488,PARMER GROCERY INC.,12115 Manchaca Rd,Austin,TX,78748,30.141734,-97.832653
200104551,ASH PARTNERS INVESTMENT INC,10001 Metric Blvd Including 2101 Rutland Dr,Austin,TX,78758,30.380223,-97.715867
200176564,Mak 7th Retail LLC,539 W Oltorf St,Austin,TX,78704,30.241758,-97.759156
200139103,Forceforge LLC,1836 San Jacinto Blvd,Austin,TX,78701,30.165611,-97.828382
200129075,"The Whole Love, LLC",7900 N FM 620,Austin,TX,78726,30.337186,-97.75495
200139103,FOUR BROTHERS MANAGEMENT LLC,1836 San Jacinto Blvd,Austin,TX,78701,30.165611,-97.828382
200053594,"AMBE HOLDINGS OF AUSTIN, LLC",2150 E 7th St,Austin,TX,78702,30.165611,-97.828382
200139103,Franklin BBQ Events LLC,1836 San Jacinto Blvd,Austin,TX,78701,30.165611,-97.828382
200176564,MAXIMUS ATX INTERNATIONAL INC.,539 W Oltorf St,Austin,TX,78704,30.241758,-97.759156
200139103,"Freebird Stores, Inc.",1836 San Jacinto Blvd,Austin,TX,78701,30.165611,-97.828382
200102789,360 FRENCH QUARTER GRILLE LLC,2525 W ANDERSON LN Unit120 Bldg3,AUSTIN,TX,78757,30.141734,-97.832653
200139103,"Fresa's Three, LLC",1836 San Jacinto Blvd,Austin,TX,78701,30.165611,-97.828382
200139103,FRESH BOWL INC,1836 San Jacinto Blvd,Austin,TX,78701,30.165611,-97.828382
200099488,Sark Express LLC,12115 Manchaca Rd,Austin,TX,78748,30.141734,-97.832653
200139103,Freytag's Florists Inc.,1836 San Jacinto Blvd,Austin,TX,78701,30.165611,-97.828382
200139103,Friends of Mine Wine Company,1836 San Jacinto Blvd,Austin,TX,78701,30.165611,-97.828382
200083927,ABZN INC.,3600 N Capital of Texas Hwy,Austin,TX,78746,30.266484,-97.740231
200139103,GABRIELAS SOUTH 9600 LLC,1836 San Jacinto Blvd,Austin,TX,78701,30.165611,-97.828382
200139103,Galaxy Highland LLC,1836 San Jacinto Blvd,Austin,TX,78701,30.165611,-97.828382
200139103,GSBR AUSTIN LLC,1836 San Jacinto Blvd,Austin,TX,78701,30.165611,-97.828382
200139103,GANGNAM AUSTIN BBQ LLC,1836 San Jacinto Blvd,Austin,TX,78701,30.165611,-97.828382
200139103,Garbos 626 Lamar LLC,1836 San Jacinto Blvd,Austin,TX,78701,30.165611,-97.828382
200139103,Gen Austin LP,1836 San Jacinto Blvd,Austin,TX,78701,30.165611,-97.828382
200139103,"Gen Austin Southpark Meadows, LLC",1836 San Jacinto Blvd,Austin,TX,78701,30.165611,-97.828382
200139103,I35 Operating LLC,1836 San Jacinto Blvd,Austin,TX,78701,30.165611,-97.828382
200139103,GILBERT BUSINESS LLC,1836 San Jacinto Blvd,Austin,TX,78701,30.165611,-97.828382
200139103,Gina's on Congress LLC,1836 San Jacinto Blvd,Austin,TX,78701,30.165611,-97.828382
200161724,Licona Family LLC,2425 Exposition Blvd,Austin,TX,78703,30.297464,-97.767146
200139103,GNAR BAR E6 LLC,1836 San Jacinto Blvd,Austin,TX,78701,30.165611,-97.828382
200139103,GOBRANDS TEXAS LLC (8150740),1836 San Jacinto Blvd,Austin,TX,78701,30.165611,-97.828382
200139103,Ex Tbirds Inc.,1836 San Jacinto Blvd,Austin,TX,78701,30.165611,-97.828382
200176564,Natchdaddy LLC,539 W Oltorf St,Austin,TX,78704,30.241758,-97.759156
200139103,GOODNIGHT COWBOY LLC,1836 San Jacinto Blvd,Austin,TX,78701,30.165611,-97.828382
200159982,CEDAR C-STORE LLC,710 W Cesar Chavez St,Austin,TX,78701,30.337186,-97.75495
200159982,Cucina Congress LLC,710 W Cesar Chavez St,Austin,TX,78701,30.337186,-97.75495
200139103,"Granny's Tacos Cafe, LLC",1836 San Jacinto Blvd,Austin,TX,78701,30.165611,-97.828382
200176564,Mile 14,539 W Oltorf St,Austin,TX,78704,30.241758,-97.759156
200164942,1400 BBQ Group LLC,3120 Manor Rd,Austin,TX,78723,30.266484,-97.740231
200139103,DOMAIN PIZZERIA INC.,1836 San Jacinto Blvd,Austin,TX,78701,30.165611,-97.828382
200055958,ZaZa Austin Bevco LLC,5770 N Mopac Expy,Austin,TX,78731,30.279571,-97.736248
200161724,JPAK BUSINESS LLC,2425 Exposition Blvd,Austin,TX,78703,30.297464,-97.767146
200139103,Grove Liquor LLC,1836 San Jacinto Blvd,Austin,TX,78701,30.165611,-97.828382
200129075,Viking Business LLC,7900 N FM 620,Austin,TX,78726,30.337186,-97.75495
200176564,Masiya LLC,539 W Oltorf St,Austin,TX,78704,30.241758,-97.759156
200157056,ASHAAD ENTERPRISES INC.,400 Lavaca St,Austin,TX,78701,30.266484,-97.740231
200139103,"H Mart Austin II, LLC",1836 San Jacinto Blvd,Austin,TX,78701,30.165611,-97.828382
200099488,Squid & Buddy Inc,12115 Manchaca Rd,Austin,TX,78748,30.141734,-97.832653
200176564,MATIDAV RESTAURANTE INC.,539 W Oltorf St,Austin,TX,78704,30.241758,-97.759156
200139103,Hamilton Liquor LLC,1836 San Jacinto Blvd,Austin,TX,78701,30.165611,-97.828382
200161724,Krishna Austin Beverage LLC,2425 Exposition Blvd,Austin,TX,78703,30.297464,-97.767146
200099488,PSOF AUSTIN F&B LLC,12115 Manchaca Rd,Austin,TX,78748,30.141734,-97.832653
200035508,ABIA SPIRITS LLC,2728 S Congress Ave,Austin,TX,78704,30.141734,-97.832653
200139103,Jin Lu LLC,1836 San Jacinto Blvd,Austin,TX,78701,30.165611,-97.828382
200144158,Big Ring Ventures LLC,8218 BURNET Rd,AUSTIN,TX,78757,30.26613,-97.751785
200168124,"C & S LIbations, LLC",2101 Montopolis Dr,Austin,TX,78741,30.165611,-97.828382
200099488,NMHL Best LLC,12115 Manchaca Rd,Austin,TX,78748,30.141734,-97.832653
200139103,"Hard AF Seltzer, Inc.",1836 San Jacinto Blvd,Austin,TX,78701,30.165611,-97.828382
200139103,HAT CREEK BEVERAGE COMPANY LLC,1836 San Jacinto Blvd,Austin,TX,78701,30.165611,-97.828382
200139103,Hattie B's of Texas LLC,1836 San Jacinto Blvd,Austin,TX,78701,30.165611,-97.828382
200139103,HAWAIIAN AIRLINES INC.,1836 San Jacinto Blvd,Austin,TX,78701,30.165611,-97.828382
200139103,"Haywire Domain, LLC",1836 San Jacinto Blvd,Austin,TX,78701,30.165611,-97.828382
200147928,THE HEADLINERS CLUB IN AUSTIN,200 W 6th St,Austin,TX,78701,30.165611,-97.828382
200139103,"Heart Dart, LLC.",1836 San Jacinto Blvd,Austin,TX,78701,30.165611,-97.828382
200139103,HEB Beverage Company LLC,1836 San Jacinto Blvd,Austin,TX,78701,30.165611,-97.828382
200139103,"Helmsman Imports, LLC",1836 San Jacinto Blvd,Austin,TX,78701,30.165611,-97.828382
200139103,Fired Pizzas LLC,1836 San Jacinto Blvd,Austin,TX,78701,30.165611,-97.828382
200139103,ESCONDIDO HSB LLC,1836 San Jacinto Blvd,Austin,TX,78701,30.165611,-97.828382
200161724,JZMN INC.,2425 Exposition Blvd,Austin,TX,78703,30.297464,-97.767146
200176564,"Manlove, LLC",539 W Oltorf St,Austin,TX,78704,30.241758,-97.759156
200139103,"High Profile Promotions, LLC",1836 San Jacinto Blvd,Austin,TX,78701,30.165611,-97.828382
200159982,Crush Radar LLC,710 W Cesar Chavez St,Austin,TX,78701,30.337186,-97.75495
200099488,Poncho Lefty Hospitality LLC,12115 Manchaca Rd,Austin,TX,78748,30.141734,-97.832653
200139103,HILLSIDE FARMACY INC.,1836 San Jacinto Blvd,Austin,TX,78701,30.165611,-97.828382
200161724,LH Lodging Austin LLC,2425 Exposition Blvd,Austin,TX,78703,30.297464,-97.767146
200161724,LV BEVERAGE & FOOD LLC,2425 Exposition Blvd,Austin,TX,78703,30.297464,-97.767146
200059106,Austin LuxSai Hotels LLC,1209 East 11th Street,Austin,TX,78702,30.297585,-97.705009
200139103,HMC BEVERAGE COMPANY TEXAS,1836 San Jacinto Blvd,Austin,TX,78701,30.165611,-97.828382
200156691,Acorn Restaurant Group LLC,12400 N Interstate Hwy 35 SUITE C,Austin,TX,78753,30.141734,-97.832653
200099488,"RUMA'S HIWINGS, LLC",12115 Manchaca Rd,Austin,TX,78748,30.141734,-97.832653
200139103,HXL RESTAURANT LLC ,1836 San Jacinto Blvd,Austin,TX,78701,30.165611,-97.828382
200161724,"Lotta Dough, LLC",2425 Exposition Blvd,Austin,TX,78703,30.297464,-97.767146
200139103,Funlab Texas Operations LLC,1836 San Jacinto Blvd,Austin,TX,78701,30.165611,-97.828382
200139103,HOLIDAY HOSPITALITY LLC,1836 San Jacinto Blvd,Austin,TX,78701,30.165611,-97.828382
200115787,Austin Airport Investment LLC,13000 N Interstate 35 Building 6,Austin,TX,78753,30.141734,-97.832653
200159982,Chimera Spirits Inc.,710 W Cesar Chavez St,Austin,TX,78701,30.337186,-97.75495
200161724,LH 35 Limited Liability Company ,2425 Exposition Blvd,Austin,TX,78703,30.297464,-97.767146
200139103,Honest Marys Inc ,1836 San Jacinto Blvd,Austin,TX,78701,30.165611,-97.828382
200139103,Hopdoddy Austin Mueller LLC,1836 San Jacinto Blvd,Austin,TX,78701,30.165611,-97.828382
200139103,HOG Manager LLC,1836 San Jacinto Blvd,Austin,TX,78701,30.165611,-97.828382
200159982,CUL SEC LLC,710 W Cesar Chavez St,Austin,TX,78701,30.337186,-97.75495
200139103,HOPSQUAD BREWING COMPANY LLC,1836 San Jacinto Blvd,Austin,TX,78701,30.165611,-97.828382
200131684,1900 Rio Grande Street Beverages LLC,2021 Aldrich St,Austin,TX,78723,30.165611,-97.828382
200159982,"CHR Austin Bev Co, LLC",710 W Cesar Chavez St,Austin,TX,78701,30.337186,-97.75495
200099488,"Sage Client 576, LLC",12115 Manchaca Rd,Austin,TX,78748,30.141734,-97.832653
200099488,Plaid Pattern LLC,12115 Manchaca Rd,Austin,TX,78748,30.141734,-97.832653
200161724,"LW Six, Inc dba House of Three Gorges",2425 Exposition Blvd,Austin,TX,78703,30.297464,-97.767146
200139103,"House Wine Austin, LLC",1836 San Jacinto Blvd,Austin,TX,78701,30.165611,-97.828382
200139103,Howard's Bar LLC,1836 San Jacinto Blvd,Austin,TX,78701,30.165611,-97.828382
200176564,MH HCAUSTIN LLC,539 W Oltorf St,Austin,TX,78704,30.241758,-97.759156
200139103,HIT Austin TX Beverage Company LLC,1836 San Jacinto Blvd,Austin,TX,78701,30.165611,-97.828382
200139103,"Hill Country Hospitaility Beverages, LLC",1836 San Jacinto Blvd,Austin,TX,78701,30.165611,-97.828382
200099488,SPADES HOTEL MANAGEMENT LLC,12115 Manchaca Rd,Austin,TX,78748,30.141734,-97.832653
200129075,TX C-STORE PRO LLC,7900 N FM 620,Austin,TX,78726,30.337186,-97.75495
200060167,888 Yummy Corporation,901 Neches St,Austin,TX,78701,30.26613,-97.751785
200139103,IKENAVES LLC,1836 San Jacinto Blvd,Austin,TX,78701,30.165611,-97.828382
200139103,Indy 2 llc,1836 San Jacinto Blvd,Austin,TX,78701,30.165611,-97.828382
200139103,Inka Chicken LLC,1836 San Jacinto Blvd,Austin,TX,78701,30.165611,-97.828382
200139103,J CARVER 509 RIO GRANDE LLC,1836 San Jacinto Blvd,Austin,TX,78701,30.165611,-97.828382
200159982,DESSENTIALS LLC,710 W Cesar Chavez St,Austin,TX,78701,30.337186,-97.75495
200159982,"Chama @ the Whitley, LLC",710 W Cesar Chavez St,Austin,TX,78701,30.337186,-97.75495
200060928,99 JADE LLC,1211 E 5th St,Austin,TX,78702,30.263222,-97.730497
200099488,RANJEETA INC.,12115 Manchaca Rd,Austin,TX,78748,30.141734,-97.832653
200139103,JALISCOS CONGRESS INC,1836 San Jacinto Blvd,Austin,TX,78701,30.165611,-97.828382
200149811,Align Consultants LLC,"7826 Highway 290 W, Austin, TX, Usa",Austin,TX,78736,30.337186,-97.75495
200139103,JDs Riverside LLC,1836 San Jacinto Blvd,Austin,TX,78701,30.165611,-97.828382
200139103,"JewBoy Burgers, LLC",1836 San Jacinto Blvd,Austin,TX,78701,30.165611,-97.828382
200051925,Techni Center Enterprise LLC,111 W William Cannon Dr,Austin,TX,78745,30.348135,-97.721754
200176564,Menchaca Jo's LLC,539 W Oltorf St,Austin,TX,78704,30.241758,-97.759156
200139103,HANCOCK JO'S LLC,1836 San Jacinto Blvd,Austin,TX,78701,30.165611,-97.828382
200166719,"Jo's Coffee Ventures, LLC",701 W 24th St,Austin,TX,78705,30.337186,-97.75495
200099488,OLD SETTLERS INVESTMENT LP,12115 Manchaca Rd,Austin,TX,78748,30.141734,-97.832653
200161724,JULIET2-AUSTIN LLC,2425 Exposition Blvd,Austin,TX,78703,30.297464,-97.767146
200161724,Jupiter Supper Club LLC,2425 Exposition Blvd,Austin,TX,78703,30.297464,-97.767146
106943373,Austin 18 Hotel Beverage LLC,1000 E 41ST ST UNIT 180,AUSTIN,TX,78751,30.300469,-97.719654
200099488,PAESR ENTERPRISES INC.,12115 Manchaca Rd,Austin,TX,78748,30.141734,-97.832653
200099488,PRADHAN USA MANAGEMENT SERVICES LLC,12115 Manchaca Rd,Austin,TX,78748,30.141734,-97.832653
200161724,KAPATAD LLC,2425 Exposition Blvd,Austin,TX,78703,30.297464,-97.767146
200161724,KELLYS IRISH PUB LLC,2425 Exposition Blvd,Austin,TX,78703,30.297464,-97.767146
200161724,Kesos Tacos Spicewood LLC,2425 Exposition Blvd,Austin,TX,78703,30.297464,-97.767146
200161724,KHON THAI LLC,2425 Exposition Blvd,Austin,TX,78703,30.297464,-97.767146
200161724,KICKING IT ATX LLC,2425 Exposition Blvd,Austin,TX,78703,30.297464,-97.767146
200161724,KIIN DI INC,2425 Exposition Blvd,Austin,TX,78703,30.297464,-97.767146
200161724,LIAM VENTURE LLC,2425 Exposition Blvd,Austin,TX,78703,30.297464,-97.767146
200161724,Kingdom Austin LLC,2425 Exposition Blvd,Austin,TX,78703,30.297464,-97.767146
200161724,"Knobloch Beverage Distribution, LLC",2425 Exposition Blvd,Austin,TX,78703,30.297464,-97.767146
200176564,NC HIBACHI AUSTIN INC,539 W Oltorf St,Austin,TX,78704,30.241758,-97.759156
200139103,hospitality ventures llc,1836 San Jacinto Blvd,Austin,TX,78701,30.165611,-97.828382
200161724,"Kokos Bavarian, LLC",2425 Exposition Blvd,Austin,TX,78703,30.297464,-97.767146
200176564,NEW AGE RETAIL LLC,539 W Oltorf St,Austin,TX,78704,30.241758,-97.759156
200161724,Kuppanna Austin LLC,2425 Exposition Blvd,Austin,TX,78703,30.297464,-97.767146
200099488,SRK BUSINESS INC.,12115 Manchaca Rd,Austin,TX,78748,30.141734,-97.832653
200161724,La Baby Social LLC,2425 Exposition Blvd,Austin,TX,78703,30.297464,-97.767146
200161724,La Catarina Restaurant #3 LLC,2425 Exposition Blvd,Austin,TX,78703,30.297464,-97.767146
200161724,La Catedral Del Mariscos LLC,2425 Exposition Blvd,Austin,TX,78703,30.297464,-97.767146
200161724,LAC BEN WHITE LLC,2425 Exposition Blvd,Austin,TX,78703,30.297464,-97.767146
200139103,Hoard4Road LLC,1836 San Jacinto Blvd,Austin,TX,78701,30.165611,-97.828382
200161724,"La Frontera Austin, LLC",2425 Exposition Blvd,Austin,TX,78703,30.297464,-97.767146
200161724,La Fruta Feliz LLC,2425 Exposition Blvd,Austin,TX,78703,30.297464,-97.767146
200099488,SUN TRS LA HACIENDA LLC,12115 Manchaca Rd,Austin,TX,78748,30.141734,-97.832653
200163192,ARR ENTERPRISE INC.,111 W William Cannon Dr,Austin,TX,78745,30.192773,-97.779537
200051925,TATI BUSINESS LLC,111 W William Cannon Dr,Austin,TX,78745,30.348135,-97.721754
200139103,"Espisa Beverage Co., LLC",1836 San Jacinto Blvd,Austin,TX,78701,30.165611,-97.828382
200103090,Austin Bakes LLC,7200 Cameron Rd Suite 7210,Austin,TX,78752,30.337186,-97.75495
200099488,"RIB ATX Enterprises, LLC",12115 Manchaca Rd,Austin,TX,78748,30.141734,-97.832653
200144158,BBL Investment LLC,8218 BURNET Rd,AUSTIN,TX,78757,30.26613,-97.751785
200139103,EUREKA RESTAURANT GROUP LLC,1836 San Jacinto Blvd,Austin,TX,78701,30.165611,-97.828382
200147943,2305 Burleson LLC,11212 N Interstate Hwy 35,Austin,TX,78753,30.803943,-97.618316
200139103,JAYA GHATAL TRADING INC.,1836 San Jacinto Blvd,Austin,TX,78701,30.165611,-97.828382
200144158,"Avocate, LLC",8218 BURNET Rd,AUSTIN,TX,78757,30.26613,-97.751785
200129075,Traviata Lantana LLC,7900 N FM 620,Austin,TX,78726,30.337186,-97.75495
200082645,900 W10th Restaurant LLC,7415 Southwest Parkway Building 5,Austin,TX,78735,30.337186,-97.75495
200139103,"DRH Lake Austin Tenant, LLC",1836 San Jacinto Blvd,Austin,TX,78701,30.165611,-97.828382
200161724,Lake Travis Biergarten LLC,2425 Exposition Blvd,Austin,TX,78703,30.297464,-97.767146
200161724,Lalas South Pole LP,2425 Exposition Blvd,Austin,TX,78703,30.297464,-97.767146
200161724,K1ATX LLC,2425 Exposition Blvd,Austin,TX,78703,30.297464,-97.767146
200161724,LANDRY DISTILLERY LLC,2425 Exposition Blvd,Austin,TX,78703,30.297464,-97.767146
200161724,Lao'd Hospitality LLC,2425 Exposition Blvd,Austin,TX,78703,30.297464,-97.767146
200161724,LAS CURRAS IN HYDE PARK LLC,2425 Exposition Blvd,Austin,TX,78703,30.297464,-97.767146
200099488,SFC SOFTWARE FACTORY LLC,12115 Manchaca Rd,Austin,TX,78748,30.141734,-97.832653
200161724,LAZARUS BREWING OPERTIONS ATX2 LLC,2425 Exposition Blvd,Austin,TX,78703,30.297464,-97.767146
200099488,Saigon Le Vendeur LLC,12115 Manchaca Rd,Austin,TX,78748,30.141734,-97.832653
200176564,Mama Bear Hospitality LLC,539 W Oltorf St,Austin,TX,78704,30.241758,-97.759156
200161724,"Lefty's Pizza Kitchen - Austin, LLC",2425 Exposition Blvd,Austin,TX,78703,30.297464,-97.767146
200161724,"LeRoy and Lewis Emerald Forest Departure, LLC",2425 Exposition Blvd,Austin,TX,78703,30.297464,-97.767146
200161724,Levy Premium Foodservice LLC ,2425 Exposition Blvd,Austin,TX,78703,30.297464,-97.767146
200161724,"LTF Club Operations Company, Inc.",2425 Exposition Blvd,Austin,TX,78703,30.297464,-97.767146
200139103,Grisgris LLC,1836 San Jacinto Blvd,Austin,TX,78701,30.165611,-97.828382
200161724,Ling Kitchen LLC,2425 Exposition Blvd,Austin,TX,78703,30.297464,-97.767146
200099488,Qi Austin LLC,12115 Manchaca Rd,Austin,TX,78748,30.141734,-97.832653
200161724,Ling Wu Grove LLC,2425 Exposition Blvd,Austin,TX,78703,30.297464,-97.767146
200099488,NICAT LLC,12115 Manchaca Rd,Austin,TX,78748,30.141734,-97.832653
200099488,Patagonia Hospitality Inc,12115 Manchaca Rd,Austin,TX,78748,30.141734,-97.832653
200161724,LW Parmer LLC,2425 Exposition Blvd,Austin,TX,78703,30.297464,-97.767146
200161724,LW 6th Street LLC,2425 Exposition Blvd,Austin,TX,78703,30.297464,-97.767146
200161724,LW Tech Ridge LLC,2425 Exposition Blvd,Austin,TX,78703,30.297464,-97.767146
200161724,LW Burnet LLC,2425 Exposition Blvd,Austin,TX,78703,30.297464,-97.767146
200161724,LW Southpark LLC,2425 Exposition Blvd,Austin,TX,78703,30.297464,-97.767146
200099488,Pacha Peru LLC,12115 Manchaca Rd,Austin,TX,78748,30.141734,-97.832653
200139103,Farm Stand LLC,1836 San Jacinto Blvd,Austin,TX,78701,30.165611,-97.828382
200161724,"Lonestar Libations, LLC",2425 Exposition Blvd,Austin,TX,78703,30.297464,-97.767146
200099488,Queen Bee restos llc,12115 Manchaca Rd,Austin,TX,78748,30.141734,-97.832653
200161724,LONGHORN WINE & SPIRITS LLC,2425 Exposition Blvd,Austin,TX,78703,30.297464,-97.767146
200161724,Loro Growth LLC,2425 Exposition Blvd,Austin,TX,78703,30.297464,-97.767146
200099488,"RODEMIL ENTERPRISES, LLC",12115 Manchaca Rd,Austin,TX,78748,30.141734,-97.832653
200161724,Los Dos Tacos LLC,2425 Exposition Blvd,Austin,TX,78703,30.297464,-97.767146
200059371,AMIGOS SUPERMERCADO INC.,704 W St Johns Ave,Austin,TX,78752,30.337186,-97.75495
200161724,Los Jarochos Dos INC,2425 Exposition Blvd,Austin,TX,78703,30.297464,-97.767146
200176564,MARGARITA PINA,539 W Oltorf St,Austin,TX,78704,30.241758,-97.759156
200176564,MML 2021 Acquisition Sub LLC,539 W Oltorf St,Austin,TX,78704,30.241758,-97.759156
200161724,LOU'S BODEGA #1 LLC,2425 Exposition Blvd,Austin,TX,78703,30.297464,-97.767146
200099488,"Park Pizza 1, LLC",12115 Manchaca Rd,Austin,TX,78748,30.141734,-97.832653
200161724,LS PIZZA BAR LLC,2425 Exposition Blvd,Austin,TX,78703,30.297464,-97.767146
200161724,Lovebirds LLC,2425 Exposition Blvd,Austin,TX,78703,30.297464,-97.767146
200080727,"1/3 Third Co, LLC",1608 Barton Springs Rd,Austin,TX,78704,30.165611,-97.828382
200055958,ZEN 2 LTD.,5770 N Mopac Expy,Austin,TX,78731,30.279571,-97.736248
200161724,Lulu's Austin LLC,2425 Exposition Blvd,Austin,TX,78703,30.297464,-97.767146
200161724,"Luxx Austin, LLC",2425 Exposition Blvd,Austin,TX,78703,30.297464,-97.767146
200161724,Lynny's LLC,2425 Exposition Blvd,Austin,TX,78703,30.297464,-97.767146
200135387,AMERICAN NOUR INC.,10701 Menchaca Rd,Austin,TX,78748,30.163708,-97.829958
200161724,"Maaribu ATX Kitchen, LLC",2425 Exposition Blvd,Austin,TX,78703,30.297464,-97.767146
200161724,Machi Japan LLC,2425 Exposition Blvd,Austin,TX,78703,30.297464,-97.767146
200176564,MK CATERING LLC,539 W Oltorf St,Austin,TX,78704,30.241758,-97.759156
200129075,We Are Texan Business LLC,7900 N FM 620,Austin,TX,78726,30.337186,-97.75495
200176564,"Mala Fama Austin, LLC",539 W Oltorf St,Austin,TX,78704,30.241758,-97.759156
200176564,"MB Burnet, LLC",539 W Oltorf St,Austin,TX,78704,30.241758,-97.759156
200159982,CAN YOU FEEL THE LOVE TONIGHT LLC,710 W Cesar Chavez St,Austin,TX,78701,30.337186,-97.75495
200176564,"MAMM'S IMPORTERS, LLC",539 W Oltorf St,Austin,TX,78704,30.241758,-97.759156
200161724,Lamy-Manana LLC,2425 Exposition Blvd,Austin,TX,78703,30.297464,-97.767146
200144158,BARCHACA LLC,8218 BURNET Rd,AUSTIN,TX,78757,30.26613,-97.751785
200163381,Austin Manna Restaurant LLC,7001 Burnet Rd,Austin,TX,78757,30.337186,-97.75495
200099488,"Powder Room Gamma, LLC",12115 Manchaca Rd,Austin,TX,78748,30.141734,-97.832653
200099488,SRM Manor LLC,12115 Manchaca Rd,Austin,TX,78748,30.141734,-97.832653
200176564,MAK GOLDEN INC.,539 W Oltorf St,Austin,TX,78704,30.241758,-97.759156
200176564,Marfa Guys LLC,539 W Oltorf St,Austin,TX,78704,30.241758,-97.759156
200099488,SORTOS HOSPITALITY LLC,12115 Manchaca Rd,Austin,TX,78748,30.141734,-97.832653
200099488,PLAZA 3903 LLC,12115 Manchaca Rd,Austin,TX,78748,30.141734,-97.832653
200099488,"Palm Creek Liquor, LLC",12115 Manchaca Rd,Austin,TX,78748,30.141734,-97.832653
106862110,"A3 Enterprises, LLC",6700 MANOR RD,AUSTIN,TX,78723,30.337186,-97.75495
200099488,"Sortos Group Ten, LLC",12115 Manchaca Rd,Austin,TX,78748,30.141734,-97.832653
200176564,"Maven Austin, LLC",539 W Oltorf St,Austin,TX,78704,30.241758,-97.759156
200139103,DOMO LLC,1836 San Jacinto Blvd,Austin,TX,78701,30.165611,-97.828382
200176564,MEANWHILE BREWING COMPANY LLC,539 W Oltorf St,Austin,TX,78704,30.241758,-97.759156
200144158,BALAGERU LLC,8218 BURNET Rd,AUSTIN,TX,78757,30.26613,-97.751785
200176564,Mendocino Farms Texas LLC,539 W Oltorf St,Austin,TX,78704,30.241758,-97.759156
200139103,"Driftwood 1, L.L.C.",1836 San Jacinto Blvd,Austin,TX,78701,30.165611,-97.828382
200176564,Mesquite Corporation,539 W Oltorf St,Austin,TX,78704,30.241758,-97.759156
200099488,NIYYAH ZAIN LLC,12115 Manchaca Rd,Austin,TX,78748,30.141734,-97.832653
200176564,Mexican Sugar Domain LLC,539 W Oltorf St,Austin,TX,78704,30.241758,-97.759156
200176564,MEXTA LLC,539 W Oltorf St,Austin,TX,78704,30.241758,-97.759156
200164878,Adan's Mezcal & Sal LLC,12005 W Highway 290,Austin,TX,78737,30.210748,-97.968323
200077967,Alamo City Foods INC,717 King Edward Place,Austin,TX,78704,30.337186,-97.75495
200176564,Mi Lindo Michoacan Restaurant LLC,539 W Oltorf St,Austin,TX,78704,30.241758,-97.759156
200176564,MI PREFERIDA BAR LLC,539 W Oltorf St,Austin,TX,78704,30.241758,-97.759156
200139103,Elite 77 Inc,1836 San Jacinto Blvd,Austin,TX,78701,30.165611,-97.828382
200176564,Mi Reino Mexican Cuisine LLC,539 W Oltorf St,Austin,TX,78704,30.241758,-97.759156
200099488,North Lamar Partners LLC,12115 Manchaca Rd,Austin,TX,78748,30.141734,-97.832653
200176564,Mi Trailita Y Mas LLC,539 W Oltorf St,Austin,TX,78704,30.241758,-97.759156
200176564,MIAN & BAO LLC,539 W Oltorf St,Austin,TX,78704,30.241758,-97.759156
200176564,Michi Japanese Deli & Sushi Inc.,539 W Oltorf St,Austin,TX,78704,30.241758,-97.759156
200099488,"Rusty Mammoth, LLC ",12115 Manchaca Rd,Austin,TX,78748,30.141734,-97.832653
200153533,313 Midnight LP,9515 N Lamar Blvd,Austin,TX,78753,30.26613,-97.751785
200176564,"MIGHTY FINE ACQUISITION, LLC",539 W Oltorf St,Austin,TX,78704,30.241758,-97.759156
200099488,"Shivani Sunil Naik & Sons, Inc. ",12115 Manchaca Rd,Austin,TX,78748,30.141734,-97.832653
200099488,Raeon LLC,12115 Manchaca Rd,Austin,TX,78748,30.141734,-97.832653
200176564,"Modern Bar, LP",539 W Oltorf St,Austin,TX,78704,30.241758,-97.759156
200099488,ONION CREEK RETAIL LLC,12115 Manchaca Rd,Austin,TX,78748,30.141734,-97.832653
200176564,Moderna Uno LLC,539 W Oltorf St,Austin,TX,78704,30.241758,-97.759156
200176564,MOLA ATX LLC,539 W Oltorf St,Austin,TX,78704,30.241758,-97.759156
200176564,MOMS 10 ENTERPRISES LLC,539 W Oltorf St,Austin,TX,78704,30.241758,-97.759156
200176564,MONARCH EXPRESS FOOD MART INC.,539 W Oltorf St,Austin,TX,78704,30.241758,-97.759156
200139103,EMOS CONCESSION COMPANY LLC,1836 San Jacinto Blvd,Austin,TX,78701,30.165611,-97.828382
200099488,OVATIONS FOOD SERVICES OF TEXAS LLC,12115 Manchaca Rd,Austin,TX,78748,30.141734,-97.832653
200139103,Good Cider LLC,1836 San Jacinto Blvd,Austin,TX,78701,30.165611,-97.828382
200176564,Moreno BBQ LLC,539 W Oltorf St,Austin,TX,78704,30.241758,-97.759156
200176564,"Mort Subite, LLC",539 W Oltorf St,Austin,TX,78704,30.241758,-97.759156
200159982,Captain & Tennille LLC,710 W Cesar Chavez St,Austin,TX,78701,30.337186,-97.75495
200139103,El Taco Felix LLC,1836 San Jacinto Blvd,Austin,TX,78701,30.165611,-97.828382
200176564,MT SUPERMARKET LLC,539 W Oltorf St,Austin,TX,78704,30.241758,-97.759156
200176564,"Mum Foods, LLC",539 W Oltorf St,Austin,TX,78704,30.241758,-97.759156
200099488,OPEQA Business LLC,12115 Manchaca Rd,Austin,TX,78748,30.141734,-97.832653
200176564,Murray's Tavern Austin LLC ,539 W Oltorf St,Austin,TX,78704,30.241758,-97.759156
200176564,NABE SUSHI INC,539 W Oltorf St,Austin,TX,78704,30.241758,-97.759156
200144158,Burnish LLC,8218 BURNET Rd,AUSTIN,TX,78757,30.26613,-97.751785
200176564,Nando's Beverages LLC,539 W Oltorf St,Austin,TX,78704,30.241758,-97.759156
200176564,NASHA RESTAURANT INC.,539 W Oltorf St,Austin,TX,78704,30.241758,-97.759156
200129075,VCNFM OPERATING II LLC,7900 N FM 620,Austin,TX,78726,30.337186,-97.75495
200159982,"Danyan, Inc",710 W Cesar Chavez St,Austin,TX,78701,30.337186,-97.75495
200139103,Feel2Fill@620 LLC,1836 San Jacinto Blvd,Austin,TX,78701,30.165611,-97.828382
200099488,SSR LLC,12115 Manchaca Rd,Austin,TX,78748,30.141734,-97.832653
200159982,DHAKAL & SON LLC,710 W Cesar Chavez St,Austin,TX,78701,30.337186,-97.75495
200099488,"Nica On Fourth, LLC",12115 Manchaca Rd,Austin,TX,78748,30.141734,-97.832653
200161724,KIRAMEKI LLC,2425 Exposition Blvd,Austin,TX,78703,30.297464,-97.767146
200099488,NOMADE 1 LLC,12115 Manchaca Rd,Austin,TX,78748,30.141734,-97.832653
200099488,Nomadic Outpost LLC,12115 Manchaca Rd,Austin,TX,78748,30.141734,-97.832653
200099488,PLANTASTE DEVELOPMENT INC,12115 Manchaca Rd,Austin,TX,78748,30.141734,-97.832653
200139103,HIGHWAY FOOD MART INC.,1836 San Jacinto Blvd,Austin,TX,78701,30.165611,-97.828382
200159982,DIYA ENTERPRISES INCORPORATED,710 W Cesar Chavez St,Austin,TX,78701,30.337186,-97.75495
200082700,Airborne Liquor Company LLC,1506 S 1st St,Austin,TX,78704,30.165611,-97.828382
200099488,NOVA KITCHEN LLC,12115 Manchaca Rd,Austin,TX,78748,30.141734,-97.832653
200099488,Nova Kitchen Westlake LLC,12115 Manchaca Rd,Austin,TX,78748,30.141734,-97.832653
200099488,Nunya Hospitality LLC,12115 Manchaca Rd,Austin,TX,78748,30.141734,-97.832653
200099488,ORANGE MARKET 3 LLC,12115 Manchaca Rd,Austin,TX,78748,30.141734,-97.832653
200129075,YNOTUS LLC,7900 N FM 620,Austin,TX,78726,30.337186,-97.75495
200099488,Oak Hill Social LLC,12115 Manchaca Rd,Austin,TX,78748,30.141734,-97.832653
200144158,Beyond 5 Investment LLC,8218 BURNET Rd,AUSTIN,TX,78757,30.26613,-97.751785
200129075,YB SUSHI INC,7900 N FM 620,Austin,TX,78726,30.337186,-97.75495
200099488,OL Beverage Holdings LLC,12115 Manchaca Rd,Austin,TX,78748,30.141734,-97.832653
200139103,EASTSIDE DEN LLC,1836 San Jacinto Blvd,Austin,TX,78701,30.165611,-97.828382
200099488,Old Saigon LLC,12115 Manchaca Rd,Austin,TX,78748,30.141734,-97.832653
200099488,Once Over Coffee Bar,12115 Manchaca Rd,Austin,TX,78748,30.141734,-97.832653
200099488,ONE BITE DUMPLINGS INC,12115 Manchaca Rd,Austin,TX,78748,30.141734,-97.832653
200099488,OLRC Social Club Inc.,12115 Manchaca Rd,Austin,TX,78748,30.141734,-97.832653
200099488,ONE TACO LLC,12115 Manchaca Rd,Austin,TX,78748,30.141734,-97.832653
200099488,ORANGE MARKET 2 INC.,12115 Manchaca Rd,Austin,TX,78748,30.141734,-97.832653
200051925,Tandem Hospitality Group LLC,111 W William Cannon Dr,Austin,TX,78745,30.348135,-97.721754
200099488,ORIGIN STUDIO HOUSE LLC,12115 Manchaca Rd,Austin,TX,78748,30.141734,-97.832653
200176564,"Manor Pickle, LLC",539 W Oltorf St,Austin,TX,78704,30.241758,-97.759156
200099488,One Bleu Dog L.L.C.,12115 Manchaca Rd,Austin,TX,78748,30.141734,-97.832653
200099488,OZ. HOUSE LLC,12115 Manchaca Rd,Austin,TX,78748,30.141734,-97.832653
200099488,PT Changthong LLC,12115 Manchaca Rd,Austin,TX,78748,30.141734,-97.832653
200099488,Padel Club Austin LLC,12115 Manchaca Rd,Austin,TX,78748,30.141734,-97.832653
200159982,Courtside Padel Club LLC,710 W Cesar Chavez St,Austin,TX,78701,30.337186,-97.75495
200099488,PALINDROME IMPORTS LLC,12115 Manchaca Rd,Austin,TX,78748,30.141734,-97.832653
200099488,"Palm Pizza, LLC",12115 Manchaca Rd,Austin,TX,78748,30.141734,-97.832653
200099488,PANGEA BEVERAGE LLC,12115 Manchaca Rd,Austin,TX,78748,30.141734,-97.832653
200099488,"Paperboy Austin 2, LLC",12115 Manchaca Rd,Austin,TX,78748,30.141734,-97.832653
200159982,"Canvas, LLC",710 W Cesar Chavez St,Austin,TX,78701,30.337186,-97.75495
200099488,Premier Worldwide Concierge LLC,12115 Manchaca Rd,Austin,TX,78748,30.141734,-97.832653
200129075,WANDERLUST WINE COMPANY LLC,7900 N FM 620,Austin,TX,78726,30.337186,-97.75495
200099488,"Pasta Bar ATX, LLC",12115 Manchaca Rd,Austin,TX,78748,30.141734,-97.832653
200099488,Patrizis Other Place LLC,12115 Manchaca Rd,Austin,TX,78748,30.141734,-97.832653
200099488,PD THAI CUISINE LLC,12115 Manchaca Rd,Austin,TX,78748,30.141734,-97.832653
200159982,CODA Concepts LLC,710 W Cesar Chavez St,Austin,TX,78701,30.337186,-97.75495
200099488,PSC Partners LLC,12115 Manchaca Rd,Austin,TX,78748,30.141734,-97.832653
200129075,TYD Down LLC,7900 N FM 620,Austin,TX,78726,30.337186,-97.75495
200099488,"Pepita & Piquin, LLC",12115 Manchaca Rd,Austin,TX,78748,30.141734,-97.832653
200099488,PershingEast LLC,12115 Manchaca Rd,Austin,TX,78748,30.141734,-97.832653
200139103,"Huynh & Lam Enterprises, Inc",1836 San Jacinto Blvd,Austin,TX,78701,30.165611,-97.828382
200051925,TDJ Food Services LLC,111 W William Cannon Dr,Austin,TX,78745,30.348135,-97.721754
200139103,HAI KY UNLIMITED LLC,1836 San Jacinto Blvd,Austin,TX,78701,30.165611,-97.828382
200099488,PHOEBE'S RESTAURANT GROUP LLC,12115 Manchaca Rd,Austin,TX,78748,30.141734,-97.832653
200099488,"Phoebe's Gracy Farms, LLC",12115 Manchaca Rd,Austin,TX,78748,30.141734,-97.832653
200055958,Z Mediterranean Cuisine LLC,5770 N Mopac Expy,Austin,TX,78731,30.279571,-97.736248
200099488,South ATX Hospitality LLC,12115 Manchaca Rd,Austin,TX,78748,30.141734,-97.832653
200159982,Dananna Enterprises Inc,710 W Cesar Chavez St,Austin,TX,78701,30.337186,-97.75495
200099488,Pins Mechanical Co. Austin LLC,12115 Manchaca Rd,Austin,TX,78748,30.141734,-97.832653
200099488,PLACITA'S MEXICAN RESTAURANT LLC,12115 Manchaca Rd,Austin,TX,78748,30.141734,-97.832653
200099488,PLANK AUSTIN LLC,12115 Manchaca Rd,Austin,TX,78748,30.141734,-97.832653
200099488,PAMORIN INC,12115 Manchaca Rd,Austin,TX,78748,30.141734,-97.832653
200099488,PLAZA R3 LLC,12115 Manchaca Rd,Austin,TX,78748,30.141734,-97.832653
200099488,"Pluckers-Southpark Meadows, LLC",12115 Manchaca Rd,Austin,TX,78748,30.141734,-97.832653
200139103,J & H Ryoo LLC,1836 San Jacinto Blvd,Austin,TX,78701,30.165611,-97.828382
200099488,POCO LOCO EBERHART LLC ,12115 Manchaca Rd,Austin,TX,78748,30.141734,-97.832653
200099488,Poke House Mueller LLC,12115 Manchaca Rd,Austin,TX,78748,30.141734,-97.832653
200099488,Poke House LLC,12115 Manchaca Rd,Austin,TX,78748,30.141734,-97.832653
200144158,Buda Coffee Partnership LLC,8218 BURNET Rd,AUSTIN,TX,78757,30.26613,-97.751785
200099488,"Popstroke Austin, LLC",12115 Manchaca Rd,Austin,TX,78748,30.141734,-97.832653
200152960,"1301 SOUTH LAMAR, LLC",724 Eberhart Ln,Austin,TX,78745,30.337186,-97.75495
200144935,1615 W 35th Street LLC,1201 Barbara Jordan Blvd,Austin,TX,78723,30.30636,-97.709168
200143625,400 Block Investment Group LLC,11150 Research Blvd,Austin,TX,78759,30.406916,-97.745798
200099488,Pourt LLC,12115 Manchaca Rd,Austin,TX,78748,30.141734,-97.832653
200099488,SAI STAR TWO LLC,12115 Manchaca Rd,Austin,TX,78748,30.141734,-97.832653
200131172,Angel Aura LLC,1301 S Lamar Blvd,Austin,TX,78704,30.141734,-97.832653
200099488,NEW PUNCH BOWL AUSTIN DOMAIN LLC,12115 Manchaca Rd,Austin,TX,78748,30.141734,-97.832653
200099488,NEW PUNCH BOWL AUSTIN CONGRESS LLC,12115 Manchaca Rd,Austin,TX,78748,30.141734,-97.832653
200099488,Quality Licensing Corp,12115 Manchaca Rd,Austin,TX,78748,30.141734,-97.832653
200099488,Quatro Amigos Spirits LLC,12115 Manchaca Rd,Austin,TX,78748,30.141734,-97.832653
200159982,CYAD Inc. ,710 W Cesar Chavez St,Austin,TX,78701,30.337186,-97.75495
200099488,QUE DIVINO ENTERPRISES LLC ,12115 Manchaca Rd,Austin,TX,78748,30.141734,-97.832653
200144158,"Barton Creek Senior Living Center, Inc",8218 BURNET Rd,AUSTIN,TX,78757,30.26613,-97.751785
200099488,OKLAHOMA QUIKTRIP BEVERAGE CORPORATION,12115 Manchaca Rd,Austin,TX,78748,30.141734,-97.832653
106883137,"7116 Valjean, LLC",221 E PARMER LN,AUSTIN,TX,78753,30.165611,-97.828382
200099488,"Radio Brews, LLC",12115 Manchaca Rd,Austin,TX,78748,30.141734,-97.832653
200099488,"Radio Rosewood, LLC",12115 Manchaca Rd,Austin,TX,78748,30.141734,-97.832653
200099488,Radius Butcher & Grocery LLC,12115 Manchaca Rd,Austin,TX,78748,30.141734,-97.832653
200116592,"73 Rainey Street, LLC",6414 Ed Bluestein Blvd,Austin,TX,78723,30.337186,-97.75495
200099488,RT Five LLC,12115 Manchaca Rd,Austin,TX,78748,30.141734,-97.832653
200099488,"RT 9, LLC",12115 Manchaca Rd,Austin,TX,78748,30.141734,-97.832653
200099488,Randalls Beverage Company Inc,12115 Manchaca Rd,Austin,TX,78748,30.141734,-97.832653
200161724,LNS TEXAS INVESTMENTS LLC,2425 Exposition Blvd,Austin,TX,78703,30.297464,-97.767146
200099488,SKM Food Inc,12115 Manchaca Rd,Austin,TX,78748,30.141734,-97.832653
200099488,REBEL CHEESE LLC,12115 Manchaca Rd,Austin,TX,78748,30.141734,-97.832653
200099488,Origen Hospitality East 6 LLC,12115 Manchaca Rd,Austin,TX,78748,30.141734,-97.832653
200099488,RF Austin Operating LLC ,12115 Manchaca Rd,Austin,TX,78748,30.141734,-97.832653
200099488,Refuel Operating Company LLC,12115 Manchaca Rd,Austin,TX,78748,30.141734,-97.832653
200099488,Regal Rooms LLC,12115 Manchaca Rd,Austin,TX,78748,30.141734,-97.832653
200099488,REGENCY BEVERAGE COMPANY LLC,12115 Manchaca Rd,Austin,TX,78748,30.141734,-97.832653
200139103,Golden Hour Group,1836 San Jacinto Blvd,Austin,TX,78701,30.165611,-97.828382
200060622,"360 Partners ATX, LLC",9001 Cameron Rd,Austin,TX,78754,30.26613,-97.751785
200099488,RNDC TEXAS LLC,12115 Manchaca Rd,Austin,TX,78748,30.141734,-97.832653
200138552,10402 Manchaca Rd LLC,208 Barton Springs Rd,Austin,TX,78704,30.165611,-97.828382
200159982,Chatham Austin RI Leaseco LLC,710 W Cesar Chavez St,Austin,TX,78701,30.337186,-97.75495
200176564,MCR Fund II Texas Beverages LLC,539 W Oltorf St,Austin,TX,78704,30.241758,-97.759156
200099488,PAC AUSTIN RIVER PLACE BEVCO LLC,12115 Manchaca Rd,Austin,TX,78748,30.141734,-97.832653
200176564,MNHM Bevco LLC,539 W Oltorf St,Austin,TX,78704,30.241758,-97.759156
200139103,"Francois Avignon Austin, LLC",1836 San Jacinto Blvd,Austin,TX,78701,30.165611,-97.828382
200159982,Carla De Jesus Solorzano,710 W Cesar Chavez St,Austin,TX,78701,30.337186,-97.75495
200139103,Eyeglass Operating LLC,1836 San Jacinto Blvd,Austin,TX,78701,30.165611,-97.828382
200159982,Cuatro Platos LLC,710 W Cesar Chavez St,Austin,TX,78701,30.337186,-97.75495
200099488,RICKYS MARISCOS Y MAS LLC,12115 Manchaca Rd,Austin,TX,78748,30.141734,-97.832653
200161724,"KTRACHOS ENTERPRISES, LLC",2425 Exposition Blvd,Austin,TX,78703,30.297464,-97.767146
200099488,RIVERCITY BUSINESS INC.,12115 Manchaca Rd,Austin,TX,78748,30.141734,-97.832653
200144158,Blue in Green LLC,8218 BURNET Rd,AUSTIN,TX,78757,30.26613,-97.751785
200129075,"WTS International, LLC",7900 N FM 620,Austin,TX,78726,30.337186,-97.75495
200175500,5001 Airport Restaurant LLC,10601 N Lamar Blvd SUITE R1,Austin,TX,78753,30.373884,-97.688834
200099488,"Rockman #1, LLC",12115 Manchaca Rd,Austin,TX,78748,30.141734,-97.832653
200099488,Russian Bistro Nazdorovye Inc.,12115 Manchaca Rd,Austin,TX,78748,30.141734,-97.832653
200099488,ROSES KITCHEN LLC,12115 Manchaca Rd,Austin,TX,78748,30.141734,-97.832653
200139103,I Am Mijo Feo Inc,1836 San Jacinto Blvd,Austin,TX,78701,30.165611,-97.828382
200099488,Spyglass Grocery LLC,12115 Manchaca Rd,Austin,TX,78748,30.141734,-97.832653
200099488,Roya Austin LLC,12115 Manchaca Rd,Austin,TX,78748,30.141734,-97.832653
200099488,RED RIVER GROCERY LLC,12115 Manchaca Rd,Austin,TX,78748,30.141734,-97.832653
200139103,Great Room Entertainment LLC,1836 San Jacinto Blvd,Austin,TX,78701,30.165611,-97.828382
200099488,RRR FOOD TRENDS LLC,12115 Manchaca Rd,Austin,TX,78748,30.141734,-97.832653
200099488,"Rudy's Texas Bar-B-Q, LLC",12115 Manchaca Rd,Austin,TX,78748,30.141734,-97.832653
200144158,Barneyy 117,8218 BURNET Rd,AUSTIN,TX,78757,30.26613,-97.751785
200099488,"RWB Beverage Services, LLC",12115 Manchaca Rd,Austin,TX,78748,30.141734,-97.832653
200099488,Sabor Veracruz INC,12115 Manchaca Rd,Austin,TX,78748,30.141734,-97.832653
200139103,"J&M Food Services, LLC",1836 San Jacinto Blvd,Austin,TX,78701,30.165611,-97.828382
200144158,BEVERAGE EMERALD POINT LLC,8218 BURNET Rd,AUSTIN,TX,78757,30.26613,-97.751785
200139103,Himalayan Corporation,1836 San Jacinto Blvd,Austin,TX,78701,30.165611,-97.828382
200099488,ST. SPRITZ DEL HLDGS LLC,12115 Manchaca Rd,Austin,TX,78748,30.141734,-97.832653
200159982,CL YUMMY INC,710 W Cesar Chavez St,Austin,TX,78701,30.337186,-97.75495
200099488,Salsita Lupita LLC,12115 Manchaca Rd,Austin,TX,78748,30.141734,-97.832653
200099488,Salvation Rainey LLC,12115 Manchaca Rd,Austin,TX,78748,30.141734,-97.832653
200161724,"LB & SM, LLC",2425 Exposition Blvd,Austin,TX,78703,30.297464,-97.767146
200099488,SAMMIE'S ITALIAN LLC,12115 Manchaca Rd,Austin,TX,78748,30.141734,-97.832653
200129075,UMATIYA ENTERPRISE INC.,7900 N FM 620,Austin,TX,78726,30.337186,-97.75495
200099488,"Samsaric Beer Company, Inc.",12115 Manchaca Rd,Austin,TX,78748,30.141734,-97.832653
200129075,TX Trapote LLC,7900 N FM 620,Austin,TX,78726,30.337186,-97.75495
200099488,San Juanita's LLC,12115 Manchaca Rd,Austin,TX,78748,30.141734,-97.832653
200099488,SANJEEVANI RESTAURANT LLC,12115 Manchaca Rd,Austin,TX,78748,30.141734,-97.832653
200099488,PZ Foods LLC ,12115 Manchaca Rd,Austin,TX,78748,30.141734,-97.832653
200159982,Destefanos italian bistro and market LLC,710 W Cesar Chavez St,Austin,TX,78701,30.337186,-97.75495
200099488,SAT 1604/151 LLC,12115 Manchaca Rd,Austin,TX,78748,30.141734,-97.832653
200139103,"Escarpment Hospitality, LLC",1836 San Jacinto Blvd,Austin,TX,78701,30.165611,-97.828382
200099488,"Saturn Disco Cocktails, LLC",12115 Manchaca Rd,Austin,TX,78748,30.141734,-97.832653
200139103,Inaki Investments LLC,1836 San Jacinto Blvd,Austin,TX,78701,30.165611,-97.828382
200099488,SEAREINAS LLC,12115 Manchaca Rd,Austin,TX,78748,30.141734,-97.832653
200099488,Seven on 7 LLC,12115 Manchaca Rd,Austin,TX,78748,30.141734,-97.832653
200051925,TAJ Mountain LLC,111 W William Cannon Dr,Austin,TX,78745,30.348135,-97.721754
200161724,LZA LLC,2425 Exposition Blvd,Austin,TX,78703,30.297464,-97.767146
200129075,Yonghua Restaurant LLC,7900 N FM 620,Austin,TX,78726,30.337186,-97.75495
200099488,PINECONE INC.,12115 Manchaca Rd,Austin,TX,78748,30.141734,-97.832653
200099488,ShowMePizza LLC,12115 Manchaca Rd,Austin,TX,78748,30.141734,-97.832653
200099488,SIETE ESTRELLAS #2 LLC,12115 Manchaca Rd,Austin,TX,78748,30.141734,-97.832653
200099488,Sign Bar LP,12115 Manchaca Rd,Austin,TX,78748,30.141734,-97.832653
200099488,Silo Winery LLC,12115 Manchaca Rd,Austin,TX,78748,30.141734,-97.832653
200129075,TX SEAFOOD & STEAKS LLC,7900 N FM 620,Austin,TX,78726,30.337186,-97.75495
200099488,Sip Pho LLC,12115 Manchaca Rd,Austin,TX,78748,30.141734,-97.832653
200161724,Kampong Frances LLC,2425 Exposition Blvd,Austin,TX,78703,30.297464,-97.767146
200099488,Sri Kandan LLC,12115 Manchaca Rd,Austin,TX,78748,30.141734,-97.832653
200099488,"Sixty Vines Domain, LLC",12115 Manchaca Rd,Austin,TX,78748,30.141734,-97.832653
107260370,A Cult Following LLC,9503 RESEARCH BLVD STE 400,AUSTIN,TX,78759,30.26613,-97.751785
200074165,2021 Ski Shores Lake Austin LLC ,512 W 29th St,Austin,TX,78705,30.266484,-97.740231
200161724,"LIQUOR BUENO, INC.",2425 Exposition Blvd,Austin,TX,78703,30.297464,-97.767146
200129075,Voyage Retail LLC,7900 N FM 620,Austin,TX,78726,30.337186,-97.75495
200099488,"Small's Pizza, LLC",12115 Manchaca Rd,Austin,TX,78748,30.141734,-97.832653
200139103,I45 Lakeline Operating LLC,1836 San Jacinto Blvd,Austin,TX,78701,30.165611,-97.828382
200099488,ROO & JOO ENTERPRISES INC.,12115 Manchaca Rd,Austin,TX,78748,30.141734,-97.832653
200099488,SOUTHSHORE DISTRICT INC.,12115 Manchaca Rd,Austin,TX,78748,30.141734,-97.832653
200129075,Umeed Group LLC,7900 N FM 620,Austin,TX,78726,30.337186,-97.75495
200099488,"Snag Delivery, Inc.",12115 Manchaca Rd,Austin,TX,78748,30.141734,-97.832653
200099488,NPR RETAILING INC,12115 Manchaca Rd,Austin,TX,78748,30.141734,-97.832653
200099488,SONALIKA BUSINESS LLC,12115 Manchaca Rd,Austin,TX,78748,30.141734,-97.832653
200099488,Snowmageddon Spirits LLC,12115 Manchaca Rd,Austin,TX,78748,30.141734,-97.832653
200099488,SO HA CUISINE LLC,12115 Manchaca Rd,Austin,TX,78748,30.141734,-97.832653
200099488,SOCO OPERATIONS LLC,12115 Manchaca Rd,Austin,TX,78748,30.141734,-97.832653
200099488,SOHO HOUSE AUSTIN LLC,12115 Manchaca Rd,Austin,TX,78748,30.141734,-97.832653
200139103,HPT TRS IHG-2 INC. & SONESTA INTERNATIONAL HOTELS CORPORATION,1836 San Jacinto Blvd,Austin,TX,78701,30.165611,-97.828382
200099488,"Sonora Wine & Spirits, LLC",12115 Manchaca Rd,Austin,TX,78748,30.141734,-97.832653
200147928,The Hottest Pot Inc.,200 W 6th St,Austin,TX,78701,30.165611,-97.828382
200099488,SOUTHERN HEIGHTS BREWING CO LLC,12115 Manchaca Rd,Austin,TX,78748,30.141734,-97.832653
200099488,"Steer Ventures I, LLC ",12115 Manchaca Rd,Austin,TX,78748,30.141734,-97.832653
200139103,IJD BUSINESS LLC,1836 San Jacinto Blvd,Austin,TX,78701,30.165611,-97.828382
200139103,Fare Affair LLC,1836 San Jacinto Blvd,Austin,TX,78701,30.165611,-97.828382
200099488,SPEC'S FAMILY CORP,12115 Manchaca Rd,Austin,TX,78748,30.141734,-97.832653
200099488,Special Noodle LLC 5,12115 Manchaca Rd,Austin,TX,78748,30.141734,-97.832653
200099488,SNOWWALK LLC,12115 Manchaca Rd,Austin,TX,78748,30.141734,-97.832653
200099488,SPEEDY STOP FOOD STORES LLC,12115 Manchaca Rd,Austin,TX,78748,30.141734,-97.832653
200099488,Speedy Stop Spirits LLC,12115 Manchaca Rd,Austin,TX,78748,30.141734,-97.832653
200099488,NEXT PAGE SPIRITS LLC,12115 Manchaca Rd,Austin,TX,78748,30.141734,-97.832653
200139103,"Jai Hanuman MK, LLC",1836 San Jacinto Blvd,Austin,TX,78701,30.165611,-97.828382
200099488,SPOKESMAN HIGHLAND LLC,12115 Manchaca Rd,Austin,TX,78748,30.141734,-97.832653
200099488,SPREAD & CO. LLC,12115 Manchaca Rd,Austin,TX,78748,30.141734,-97.832653
200099488,SFM LLC,12115 Manchaca Rd,Austin,TX,78748,30.141734,-97.832653
200099488,St. Elmo Brewing LLC,12115 Manchaca Rd,Austin,TX,78748,30.141734,-97.832653
200099488,St John Social LLC,12115 Manchaca Rd,Austin,TX,78748,30.141734,-97.832653
200161724,LOST FALLS LLC,2425 Exposition Blvd,Austin,TX,78703,30.297464,-97.767146
200139103,FOUR BLUE PALMS LLC,1836 San Jacinto Blvd,Austin,TX,78701,30.165611,-97.828382
200099488,STERLING EVENTS HOSPITALITY LTD.,12115 Manchaca Rd,Austin,TX,78748,30.141734,-97.832653
200161724,Liquor Group LLC,2425 Exposition Blvd,Austin,TX,78703,30.297464,-97.767146
200099488,SPRINGDALE STATION LLC,12115 Manchaca Rd,Austin,TX,78748,30.141734,-97.832653
200099488,SGM Capital Foods LLC,12115 Manchaca Rd,Austin,TX,78748,30.141734,-97.832653
200158708,710 West LLC,10905 FM812 Unit 110,Austin,TX,78719,30.141881,-97.668145
200139103,EL LEON'S EAST LLC,1836 San Jacinto Blvd,Austin,TX,78701,30.165611,-97.828382
200099488,Stems Floral Design,12115 Manchaca Rd,Austin,TX,78748,30.141734,-97.832653
200159982,DB LIQUOR OAKHILL LLC,710 W Cesar Chavez St,Austin,TX,78701,30.337186,-97.75495
200159982,DB LIQUOR TARRYTOWN LLC,710 W Cesar Chavez St,Austin,TX,78701,30.337186,-97.75495
200099488,STILL AUSTIN DISTILLERY LLC,12115 Manchaca Rd,Austin,TX,78748,30.141734,-97.832653
200129075,YOLEXO BUSINESS LLC,7900 N FM 620,Austin,TX,78726,30.337186,-97.75495
200099488,"SVF8, LLC",12115 Manchaca Rd,Austin,TX,78748,30.141734,-97.832653
200176564,MJ58 CORP,539 W Oltorf St,Austin,TX,78704,30.241758,-97.759156
200144158,BOWL & PLATE HOLDINGS LLC ,8218 BURNET Rd,AUSTIN,TX,78757,30.26613,-97.751785
200139103,EXCEPTIONALLY ORDINARY LLC,1836 San Jacinto Blvd,Austin,TX,78701,30.165611,-97.828382
200129547,MAHER BUSINESS LLC,915 W Oltorf St,Austin,TX,78704,30.26613,-97.751785
200139103,ENAM BUSINESS LLC,1836 San Jacinto Blvd,Austin,TX,78701,30.165611,-97.828382
200099488,Sunset Strip Entertainment LLC,12115 Manchaca Rd,Austin,TX,78748,30.141734,-97.832653
200144158,BARS Business Inc,8218 BURNET Rd,AUSTIN,TX,78757,30.26613,-97.751785
200099488,SB ATX Downtown LLC,12115 Manchaca Rd,Austin,TX,78748,30.141734,-97.832653
200144158,BMK SUSHI LLC,8218 BURNET Rd,AUSTIN,TX,78757,30.26613,-97.751785
200099488,"SUSHI JAPON & HIBACHI GRILL, LLC",12115 Manchaca Rd,Austin,TX,78748,30.141734,-97.832653
200099488,"Sushi Concepts Austin, LLC",12115 Manchaca Rd,Austin,TX,78748,30.141734,-97.832653
200162935,NEW LIANG YUAN INC,4600 W Guadalupe St,Austin,TX,78751,30.266484,-97.740231
200161724,KSY ENTERPRISES INC.,2425 Exposition Blvd,Austin,TX,78703,30.297464,-97.767146
200099488,South Swedish LLC,12115 Manchaca Rd,Austin,TX,78748,30.141734,-97.832653
200139103,Downtown Swedish LLC,1836 San Jacinto Blvd,Austin,TX,78701,30.165611,-97.828382
200161724,KOKO YA INC.,2425 Exposition Blvd,Austin,TX,78703,30.297464,-97.767146
200161724,Lonestar Farms LLC  ( Lonestar Collective LLC ),2425 Exposition Blvd,Austin,TX,78703,30.297464,-97.767146
200099488,"Prasso Hospitality, LLC",12115 Manchaca Rd,Austin,TX,78748,30.141734,-97.832653
200139103,HAPPY GOODS INC.,1836 San Jacinto Blvd,Austin,TX,78701,30.165611,-97.828382
200159982,DCJ Restaurant Inc,710 W Cesar Chavez St,Austin,TX,78701,30.337186,-97.75495
200062093,"TACO FLATS-RIATA, LLC",12221 Riata Trace Parkway STE100,Austin,TX,78727,30.141734,-97.832653
200109964,TACO MORE L.L.C.,2015 E Riverside Dr Suite 1A   ,Austin,TX,78741,30.165611,-97.828382
200175061,Taco N Maiz LLC,603 Sabine St,Austin,TX,78701,30.279571,-97.736248
107170765,TACODELI HOLDINGS INC.,1500 SPYGLASS DR UNIT B,AUSTIN,TX,78746,30.165611,-97.828382
200051925,Tancho Lantana LLC,111 W William Cannon Dr,Austin,TX,78745,30.348135,-97.721754
200051925,TANDOORI LOUNGE LLC,111 W William Cannon Dr,Austin,TX,78745,30.348135,-97.721754
200099488,Synergy Techops Services LLC,12115 Manchaca Rd,Austin,TX,78748,30.141734,-97.832653
200051925,TAQUERIA 102 LLC,111 W William Cannon Dr,Austin,TX,78745,30.348135,-97.721754
200099488,SRA. MA. CARMEN INC,12115 Manchaca Rd,Austin,TX,78748,30.141734,-97.832653
200161724,KARLA'S RESTAURANTES INC.,2425 Exposition Blvd,Austin,TX,78703,30.297464,-97.767146
200099488,PRIME STAR LLC,12115 Manchaca Rd,Austin,TX,78748,30.141734,-97.832653
200161724,LOPEZ RESTAURANTE INC.,2425 Exposition Blvd,Austin,TX,78703,30.297464,-97.767146
200051925,TAQUERO MUCHO N BURNET LLC,111 W William Cannon Dr,Austin,TX,78745,30.348135,-97.721754
200139103,Hecho Sinton Holdings LLC,1836 San Jacinto Blvd,Austin,TX,78701,30.165611,-97.828382
200051925,Tarrytown Bar & Bistro LLC,111 W William Cannon Dr,Austin,TX,78745,30.348135,-97.721754
200141881,"AUS Plus Retail, LLC",6700 Middle Fiskville Rd,Austin,TX,78752,30.337186,-97.75495
200051925,TASTE OF HOME HEALTH FOOD LLC,111 W William Cannon Dr,Austin,TX,78745,30.348135,-97.721754
200099488,ROYALTY HOSPITALITY GROUP LLC,12115 Manchaca Rd,Austin,TX,78748,30.141734,-97.832653
200051925,Tea Around Town Austin Inc.,111 W William Cannon Dr,Austin,TX,78745,30.348135,-97.721754
200163122,4751 E PARMER LN LLC,3110 Windsor Rd,Austin,TX,78703,30.266484,-97.740231
200129075,THUNDERBIRD COFFEE - MANOR LLC,7900 N FM 620,Austin,TX,78726,30.337186,-97.75495
200161724,Kelly's Hospitality Group Limited Liability Compan,2425 Exposition Blvd,Austin,TX,78703,30.297464,-97.767146
200159982,DB LIQUOR LLC,710 W Cesar Chavez St,Austin,TX,78701,30.337186,-97.75495
127256060,TEQUILA 101 LLC,7600 ROBALO RD,AUSTIN,TX,78757,30.337186,-97.75495
200159982,CLIPBANDITS LLC,710 W Cesar Chavez St,Austin,TX,78701,30.337186,-97.75495
200099488,NICKIS FOOD LLC,12115 Manchaca Rd,Austin,TX,78748,30.141734,-97.832653
200141059,ALIJBIN LLC,1601 W 38th St,Austin,TX,78731,30.165611,-97.828382
200139103,ERISH ENTERPRISE INC,1836 San Jacinto Blvd,Austin,TX,78701,30.165611,-97.828382
127256060,Austin Card Room LLC ,7600 ROBALO RD,AUSTIN,TX,78757,30.337186,-97.75495
200058443,Texas Chili Parlor Inc,1409 Lavaca St,Austin,TX,78701,30.276962,-97.74198
200159982,"Coffee Traders, Inc.",710 W Cesar Chavez St,Austin,TX,78701,30.337186,-97.75495
200087069,TFB Operations LLC,2900 Rio Grande Street,Austin,TX,78705,30.141734,-97.832653
200099488,S & J Ventures LLC,12115 Manchaca Rd,Austin,TX,78748,30.141734,-97.832653
200144158,AVIAN LIQUOR LLC,8218 BURNET Rd,AUSTIN,TX,78757,30.26613,-97.751785
200176564,"M's on the Bend, LLC",539 W Oltorf St,Austin,TX,78704,30.241758,-97.759156
200152624,TEX-IN BS LLC,3223 E 7th St,Austin,TX,78702,30.266484,-97.740231
200099488,SVR TX GROUP LLC,12115 Manchaca Rd,Austin,TX,78748,30.141734,-97.832653
200166665,"THE ABGB CO., LLC",2805 San Jacinto Blvd,Austin,TX,78705,30.141734,-97.832653
200166665,THE AUSTIN CLUB,2805 San Jacinto Blvd,Austin,TX,78705,30.141734,-97.832653
200161724,MAGLITCH SPIRITS LLC,2425 Exposition Blvd,Austin,TX,78703,30.297464,-97.767146
200129075,WINE MERCHANTS LLC,7900 N FM 620,Austin,TX,78726,30.337186,-97.75495
200139103,Greystone Drive Business LLC,1836 San Jacinto Blvd,Austin,TX,78701,30.165611,-97.828382
200055958,ZAM & N LLC,5770 N Mopac Expy,Austin,TX,78731,30.279571,-97.736248
200176564,Nav Business LLC,539 W Oltorf St,Austin,TX,78704,30.241758,-97.759156
107115985,12010 Dunn Manchaca LLC,2500 HIGHWAY 183 S,Austin,TX,78744,30.141734,-97.832653
200099488,Resilience LLC,12115 Manchaca Rd,Austin,TX,78748,30.141734,-97.832653
200144158,Bar Blue ATX,8218 BURNET Rd,AUSTIN,TX,78757,30.26613,-97.751785
200161724,Juicerie Austin LLC,2425 Exposition Blvd,Austin,TX,78703,30.297464,-97.767146
200139103,HOTEL CARP BEVERAGES LLC,1836 San Jacinto Blvd,Austin,TX,78701,30.165611,-97.828382
200147928,The Cauldron Group LLC,200 W 6th St,Austin,TX,78701,30.165611,-97.828382
200159982,CONCOURSE VENUE LLC,710 W Cesar Chavez St,Austin,TX,78701,30.337186,-97.75495
200099488,ROUGH CUT LLC,12115 Manchaca Rd,Austin,TX,78748,30.141734,-97.832653
200139103,DRT Austin LLC,1836 San Jacinto Blvd,Austin,TX,78701,30.165611,-97.828382
200161724,Khasat Group LLC,2425 Exposition Blvd,Austin,TX,78703,30.297464,-97.767146
200139103,DW Domain LLC,1836 San Jacinto Blvd,Austin,TX,78701,30.165611,-97.828382
200176564,MEDICAL PARKWAY PUB L.L.C.,539 W Oltorf St,Austin,TX,78704,30.241758,-97.759156
107061942,1300 E7th Restaurant LLC,611 E 7TH ST,AUSTIN,TX,78701,30.337186,-97.75495
200139103,Evia LLC,1836 San Jacinto Blvd,Austin,TX,78701,30.165611,-97.828382
200139103,"Grill-eria Brands, LLC",1836 San Jacinto Blvd,Austin,TX,78701,30.165611,-97.828382
200139103,"IK-110 SA, LLC",1836 San Jacinto Blvd,Austin,TX,78701,30.165611,-97.828382
200099488,SJ Retail C Store Inc,12115 Manchaca Rd,Austin,TX,78748,30.141734,-97.832653
107272172,THE AUSTIN HIVE LLC,10542 MANCHACA DR,AUSTIN,TX,78748,30.26613,-97.751785
200161724,Kimberly Austin LLC,2425 Exposition Blvd,Austin,TX,78703,30.297464,-97.767146
200105574,The Kitchen Austin LLC,400 W 6th St,austin,TX,78701,30.266484,-97.740231
200139103,GDDT ENTERPRISES LLC,1836 San Jacinto Blvd,Austin,TX,78701,30.165611,-97.828382
200129075,"The Local ATX, LLC",7900 N FM 620,Austin,TX,78726,30.337186,-97.75495
107272172,2806 Manor Holdings LLC,10542 MANCHACA DR,AUSTIN,TX,78748,30.165611,-97.828382
200099488,"Sardis Lone Star II, LLC",12115 Manchaca Rd,Austin,TX,78748,30.141734,-97.832653
200144158,Berkman C Store Inc,8218 BURNET Rd,AUSTIN,TX,78757,30.26613,-97.751785
200129075,THE METEOR SOUTH CONGRESS LLC,7900 N FM 620,Austin,TX,78726,30.337186,-97.75495
200097361,Austin 19 Hotel Beverage LLC,9901 Brodie Ln,Austin,TX,78748,30.26613,-97.751785
200129075,THE PHO NOODLE HOUSE LLC,7900 N FM 620,Austin,TX,78726,30.337186,-97.75495
200159982,"DKBJ Ventures, LLC",710 W Cesar Chavez St,Austin,TX,78701,30.337186,-97.75495
200166665,THAT ESCALATED QUICKLY ENT LIMITED LIABILITY COMPANY,2805 San Jacinto Blvd,Austin,TX,78705,30.141734,-97.832653
200129075,The Rainey House 76 LLC,7900 N FM 620,Austin,TX,78726,30.337186,-97.75495
200099488,Reserve Austin SH LLC,12115 Manchaca Rd,Austin,TX,78748,30.141734,-97.832653
200129075,The RSRV Group LLC,7900 N FM 620,Austin,TX,78726,30.337186,-97.75495
200129075,"The Tailor Shop, LLC",7900 N FM 620,Austin,TX,78726,30.337186,-97.75495
200138720,AMAP #4 INC.,76 Rainey St,Austin,TX,78701,30.337186,-97.75495
200099488,Social Billionaires LLC,12115 Manchaca Rd,Austin,TX,78748,30.141734,-97.832653
200166665,THE AMUSEMENT BARK L.L.C.,2805 San Jacinto Blvd,Austin,TX,78705,30.141734,-97.832653
200129075,The Wheel Too LP,7900 N FM 620,Austin,TX,78726,30.337186,-97.75495
200129075,Theameh Corporation,7900 N FM 620,Austin,TX,78726,30.337186,-97.75495
200139103,FIFTH AND BRAZOS BEVERAGE MANAGER LLC,1836 San Jacinto Blvd,Austin,TX,78701,30.165611,-97.828382
200161724,LIAN XING INC,2425 Exposition Blvd,Austin,TX,78703,30.297464,-97.767146
200129075,"Tiger Lilly Austin Op Co, LLC",7900 N FM 620,Austin,TX,78726,30.337186,-97.75495
200099488,"Shri Ganesha Foods, INC.",12115 Manchaca Rd,Austin,TX,78748,30.141734,-97.832653
200152624,Texas Petroleum Group LLC,3223 E 7th St,Austin,TX,78702,30.266484,-97.740231
200139103,"Eleventh Street Partners, LLC ",1836 San Jacinto Blvd,Austin,TX,78701,30.165611,-97.828382
200129075,Tiny Grocer Hyde Park LLC,7900 N FM 620,Austin,TX,78726,30.337186,-97.75495
200129075,TINY GROCER LLC,7900 N FM 620,Austin,TX,78726,30.337186,-97.75495
200129075,Tiny Minotaur Larp Society Club,7900 N FM 620,Austin,TX,78726,30.337186,-97.75495
200139103,DTGTX LLC,1836 San Jacinto Blvd,Austin,TX,78701,30.165611,-97.828382
200161724,JPM28 LLC,2425 Exposition Blvd,Austin,TX,78703,30.297464,-97.767146
200129075,Toasty Badger LLC,7900 N FM 620,Austin,TX,78726,30.337186,-97.75495
200161724,Madhushala Manor LLC,2425 Exposition Blvd,Austin,TX,78703,30.297464,-97.767146
200144158,"Bacalar, LLC",8218 BURNET Rd,AUSTIN,TX,78757,30.26613,-97.751785
200099488,SAITO SHOKUNIN LLC,12115 Manchaca Rd,Austin,TX,78748,30.141734,-97.832653
200099488,Success Foods Management Group LLC,12115 Manchaca Rd,Austin,TX,78748,30.141734,-97.832653
200129075,Toshokan LLC,7900 N FM 620,Austin,TX,78726,30.337186,-97.75495
200159982,Chatham Austin TPS Leaseco LLC,710 W Cesar Chavez St,Austin,TX,78701,30.337186,-97.75495
200129075,TOXIKA SPORT BAR,7900 N FM 620,Austin,TX,78726,30.337186,-97.75495
200129075,TrapHouseATX LLC,7900 N FM 620,Austin,TX,78726,30.337186,-97.75495
200129075,Travis Association for the Blind,7900 N FM 620,Austin,TX,78726,30.337186,-97.75495
200139103,EAST COCKTAIL CLUB LLC,1836 San Jacinto Blvd,Austin,TX,78701,30.165611,-97.828382
200144158,AUSTIN TRULUCKS LTD.,8218 BURNET Rd,AUSTIN,TX,78757,30.26613,-97.751785
200129075,Tu Casa Azteca LLC,7900 N FM 620,Austin,TX,78726,30.337186,-97.75495
200177021,Animal Haus LLC,310 Colorado St,Austin,TX,78701,30.141734,-97.832653
200129075,TWIN LION BRAKER INC,7900 N FM 620,Austin,TX,78726,30.337186,-97.75495
200129075,TWIN LIQUORS LP,7900 N FM 620,Austin,TX,78726,30.337186,-97.75495
200129075,TWO HANDS SOUTH CONGRESS LLC,7900 N FM 620,Austin,TX,78726,30.337186,-97.75495
200129075,TWO STEP TAQUERIA AUSTIN-UT LLC,7900 N FM 620,Austin,TX,78726,30.337186,-97.75495
200129075,"Xochimilco, LLC",7900 N FM 620,Austin,TX,78726,30.337186,-97.75495
200129075,Uchi Growth LLC,7900 N FM 620,Austin,TX,78726,30.337186,-97.75495
200129075,UCHIKO LLC,7900 N FM 620,Austin,TX,78726,30.337186,-97.75495
200161724,KHP Research LLC,2425 Exposition Blvd,Austin,TX,78703,30.297464,-97.767146
200139103,"Fusion Food Industry, LLC",1836 San Jacinto Blvd,Austin,TX,78701,30.165611,-97.828382
200129075,UNCLE NICKY'S 2 LLC,7900 N FM 620,Austin,TX,78726,30.337186,-97.75495
200129075,University of Texas at Austin,7900 N FM 620,Austin,TX,78726,30.337186,-97.75495
200176564,MRAB BIZ LLC,539 W Oltorf St,Austin,TX,78704,30.241758,-97.759156
200161724,JV BROTHERS INVESTMENT LLC,2425 Exposition Blvd,Austin,TX,78703,30.297464,-97.767146
200099488,Roberts Liquors LLC,12115 Manchaca Rd,Austin,TX,78748,30.141734,-97.832653
200129075,Uptown Sports Club LLC,7900 N FM 620,Austin,TX,78726,30.337186,-97.75495
200129075,Urban Smoke and Liquor LLC,7900 N FM 620,Austin,TX,78726,30.337186,-97.75495
200129075,US Natural Wine LLC,7900 N FM 620,Austin,TX,78726,30.337186,-97.75495
200129075,USNW LLC ,7900 N FM 620,Austin,TX,78726,30.337186,-97.75495
200129075,Usual Beverage Company LLC,7900 N FM 620,Austin,TX,78726,30.337186,-97.75495
200129075,VACANCY BREWING LLC,7900 N FM 620,Austin,TX,78726,30.337186,-97.75495
200139103,"Ed's Hospitality Group, LLC",1836 San Jacinto Blvd,Austin,TX,78701,30.165611,-97.828382
200129075,Vaqueros west LLC ,7900 N FM 620,Austin,TX,78726,30.337186,-97.75495
200062093,TACO LIBRE BEVERAGE HOLDING LLC,12221 Riata Trace Parkway STE100,Austin,TX,78727,30.141734,-97.832653
200129075,Veracruz Juice Bar LLC,7900 N FM 620,Austin,TX,78726,30.337186,-97.75495
200129075,VRD LLC,7900 N FM 620,Austin,TX,78726,30.337186,-97.75495
200129075,"Vestals Catering Beverage Holdings, LLC",7900 N FM 620,Austin,TX,78726,30.337186,-97.75495
200139103,Guerrero Concept LLC,1836 San Jacinto Blvd,Austin,TX,78701,30.165611,-97.828382
200129075,Victory Lap Austin Op Co LLC,7900 N FM 620,Austin,TX,78726,30.337186,-97.75495
200129075,"Victory Lap Rainey Street, LLC",7900 N FM 620,Austin,TX,78726,30.337186,-97.75495
200129075,Vida Verde Kitchen LLC,7900 N FM 620,Austin,TX,78726,30.337186,-97.75495
200129075,W2-BW TRIANGLE BEVERAGE COMPANY LLC,7900 N FM 620,Austin,TX,78726,30.337186,-97.75495
200129075,Vintage Bookstore and Wine Bar LLC,7900 N FM 620,Austin,TX,78726,30.337186,-97.75495
200129075,Violet Crown Partners LLC ,7900 N FM 620,Austin,TX,78726,30.337186,-97.75495
200129075,"VIOLET CROWN WINE, LLC",7900 N FM 620,Austin,TX,78726,30.337186,-97.75495
200139103,FARDEEN & FARAZ INC.,1836 San Jacinto Blvd,Austin,TX,78701,30.165611,-97.828382
200099488,Silicon Hills Enterprise LLC (S.H.E.C.),12115 Manchaca Rd,Austin,TX,78748,30.141734,-97.832653
200129075,"WAHOOS LAKEWAY, LLC",7900 N FM 620,Austin,TX,78726,30.337186,-97.75495
200129075,"WAKESURF SALOON, LLC",7900 N FM 620,Austin,TX,78726,30.337186,-97.75495
200129075,Walnut Creek Pub LLC,7900 N FM 620,Austin,TX,78726,30.337186,-97.75495
200129075,"Waterloo Records & Video, Inc.",7900 N FM 620,Austin,TX,78726,30.337186,-97.75495
200139103,ELITE GROCERS LLC,1836 San Jacinto Blvd,Austin,TX,78701,30.165611,-97.828382
200139103,ELEMENT RETAIL INC.,1836 San Jacinto Blvd,Austin,TX,78701,30.165611,-97.828382
200099488,SPIRIT RETAIL INC.,12115 Manchaca Rd,Austin,TX,78748,30.141734,-97.832653
200139103,EPIC RETAIL INC,1836 San Jacinto Blvd,Austin,TX,78701,30.165611,-97.828382
200099488,SOLUTION RETAIL INC,12115 Manchaca Rd,Austin,TX,78748,30.141734,-97.832653
200129075,Wesaus Beverage LLC,7900 N FM 620,Austin,TX,78726,30.337186,-97.75495
200129075,WESTMINSTER MANOR,7900 N FM 620,Austin,TX,78726,30.337186,-97.75495
200129075,WHEATSVILLE CO-OP,7900 N FM 620,Austin,TX,78726,30.337186,-97.75495
200129075,"WTF East ATX, LLC",7900 N FM 620,Austin,TX,78726,30.337186,-97.75495
200166620,1321SC LLC,310 E 5th St.,Austin,TX,78701,30.266484,-97.740231
200129075,"The Wiggle Room, LLC",7900 N FM 620,Austin,TX,78726,30.337186,-97.75495
200129075,WILD GREG'S SALOON AUSTIN LLC,7900 N FM 620,Austin,TX,78726,30.337186,-97.75495
200129075,Wild Leaf Holdings US LLC,7900 N FM 620,Austin,TX,78726,30.337186,-97.75495
200176564,METRO RETAIL LLC,539 W Oltorf St,Austin,TX,78704,30.241758,-97.759156
200159982,"CNJ Austin Wings XXII, LLC",710 W Cesar Chavez St,Austin,TX,78701,30.337186,-97.75495
200159982,"CNJ Austin Wings XXI, LLC",710 W Cesar Chavez St,Austin,TX,78701,30.337186,-97.75495
200129075,WLS BEVERAGE COMPANY,7900 N FM 620,Austin,TX,78726,30.337186,-97.75495
200129075,WONDERSPACES AUSTIN LLC,7900 N FM 620,Austin,TX,78726,30.337186,-97.75495
200139103,DW Sixth Street LLC,1836 San Jacinto Blvd,Austin,TX,78701,30.165611,-97.828382
200129075,Word of Mouth MML LLC,7900 N FM 620,Austin,TX,78726,30.337186,-97.75495
200161724,KM Brothers LLC,2425 Exposition Blvd,Austin,TX,78703,30.297464,-97.767146
200129075,World Market of Texas LLC,7900 N FM 620,Austin,TX,78726,30.337186,-97.75495
200129075,WRIGHT BROS BREW AND BREW LLC,7900 N FM 620,Austin,TX,78726,30.337186,-97.75495
200099488,Paribesh LLC,12115 Manchaca Rd,Austin,TX,78748,30.141734,-97.832653
200139103,FM 1626 BUSINESS LLC ,1836 San Jacinto Blvd,Austin,TX,78701,30.165611,-97.828382
200176564,Medusa Hospitality Group LLC,539 W Oltorf St,Austin,TX,78704,30.241758,-97.759156
200139103,Himalayan Yeti LLC,1836 San Jacinto Blvd,Austin,TX,78701,30.165611,-97.828382
200129075,YOSHIKO SUSHI 888 LLC,7900 N FM 620,Austin,TX,78726,30.337186,-97.75495
200099488,Sera lim inc,12115 Manchaca Rd,Austin,TX,78748,30.141734,-97.832653
200094907,Yup Lounge LLC,607 San Jacinto Blvd,Austin,TX,78701,30.267757,-97.740072
200046662,10616 The Zone LLC,2900 N Quinlan Park Rd,Austin,TX,78732,30.141734,-97.832653
200099488,STASSNEY MARKET LLC,12115 Manchaca Rd,Austin,TX,78748,30.141734,-97.832653
200055958,Zeds Holdings LLC,5770 N Mopac Expy,Austin,TX,78731,30.279571,-97.736248
200129075,Ambe Breweries LLC,7900 N FM 620,Austin,TX,78726,30.337186,-97.75495
200055958,ZILKER BREWING COMPANY LLC,5770 N Mopac Expy,Austin,TX,78731,30.279571,-97.736248
200063479,ASHLIN LLC,10616 MENCHACA Rd,AUSTIN,TX,78748,30.165303,-97.829982
200159982,D&V Innovations LLC,710 W Cesar Chavez St,Austin,TX,78701,30.337186,-97.75495
